"ip","fetch_error","bogon","hostname","anycast","city","region","country","postal","loc","timezone","org"
"162.198.218.92",,,"162-198-218-92.lightspeed.gnvlsc.sbcglobal.net",,"Taylors","South Carolina","US","29687","34.9204,-82.2962","America/New_York","AS7018 AT&T Services, Inc."
"13.149.61.4",,,,,"Norwalk","Connecticut","US","06851","41.1176,-73.4079","America/New_York",
"215.97.143.157",,,,,"Columbus","Ohio","US","43218","39.9690,-83.0114","America/New_York","AS749 DoD Network Information Center"
"200.13.225.150",,,"static-epm200-13-225-150.epm.net.co",,"Itagüí","Antioquia","CO","055410","6.1846,-75.5991","America/Bogota","AS13489 UNE EPM TELECOMUNICACIONES S.A."
"65.164.3.100",,,,,"Bryan","Ohio","US","43506","41.4748,-84.5524","America/New_York","AS174 Cogent Communications"
"117.67.192.211",,,,,"Shanghai","Shanghai","CN","200000","31.2222,121.4581","Asia/Shanghai","AS4134 CHINANET-BACKBONE"
"140.212.253.222",,,,,"Newark","New Jersey","US","07102","40.7357,-74.1724","America/New_York",
"92.214.76.157",,,"ipservice-092-214-076-157.092.214.pools.vodafone-ip.de",,"Hannover","Lower Saxony","DE","30159","52.3705,9.7332","Europe/Berlin","AS3209 Vodafone GmbH"
"24.148.92.177",,,"24-148-92-177.s1196.c3-0.arm-cbr1.chi-arm.il.cable.rcncustomer.com",,"Chicago","Illinois","US","60666","41.8500,-87.6500","America/Chicago","AS6079 RCN"
"32.169.88.41",,,,,"Seattle","Washington","US","98108","47.5413,-122.3129","America/Los_Angeles","AS16509 Amazon.com, Inc."
"213.15.9.253",,,,,"Doddaballapura","Karnataka","IN","560103","13.2257,77.5750","Asia/Kolkata","AS5400 British Telecommunications PLC"
"210.98.198.143",,,,,"Seoul","Seoul","KR","03141","37.5660,126.9784","Asia/Seoul",
"193.83.0.183",,,"193-83-0-183.adsl.highway.telekom.at",,"Salzburg","Salzburg","AT","5020","47.7994,13.0440","Europe/Vienna","AS8447 A1 Telekom Austria AG"
"188.124.181.12",,,"12-181-124-188.rev.pro-internet.pl",,"Kosakowo","Pomerania","PL","81-198","54.5893,18.4848","Europe/Warsaw","AS34999 PRO INTERNET Sp. z o.o."
"53.218.177.171",,,,,"Sindelfingen","Baden-Wurttemberg","DE","71065","48.7000,9.0167","Europe/Berlin","AS31399 Mercedes-Benz Group AG"
"93.218.115.132",,,"p5dda7384.dip0.t-ipconnect.de",,"Dietingen","Baden-Wurttemberg","DE","78661","48.2048,8.6486","Europe/Berlin","AS3320 Deutsche Telekom AG"
"120.170.93.69",,,,,"Medan","North Sumatra","ID",,"3.5833,98.6667","Asia/Jakarta","AS4761 INDOSAT Internet Network Provider"
"116.44.12.250",,,,,"Seoul","Seoul","KR","03141","37.5660,126.9784","Asia/Seoul","AS17858 LG POWERCOMM"
"133.63.96.21",,,,,"Tokyo","Tokyo","JP","101-8656","35.6895,139.6917","Asia/Tokyo","AS2907 Research Organization of Information and Systems, National Institute of Informatics"
"119.186.154.104",,,,,"Qingdao","Shandong","CN","266000","36.0649,120.3804","Asia/Shanghai","AS4837 CHINA UNICOM China169 Backbone"
"21.28.32.1",,,,,"Columbus","Ohio","US","43218","39.9690,-83.0114","America/New_York","AS749 DoD Network Information Center"
"33.28.138.82",,,,,"Columbus","Ohio","US","43218","39.9690,-83.0114","America/New_York","AS749 DoD Network Information Center"
"134.140.85.231",,,"h134-140-85-231.mdsnwi.tisp.static.tds.net",,"Madison","Wisconsin","US","53706","43.0731,-89.4012","America/Chicago","AS4181 TDS TELECOM"
"49.29.37.185",,,,,"Jeonju","Jeollabuk-do","KR","54992","35.8219,127.1489","Asia/Seoul","AS4766 Korea Telecom"
"59.132.247.252",,,"kd059132247252.au-net.ne.jp",,"Sapporo","Hokkaido","JP","065-0010","43.0667,141.3500","Asia/Tokyo","AS2516 KDDI CORPORATION"
"77.208.193.198",,,,,"Orihuela","Valencia","ES","03300","38.0848,-0.9440","Europe/Madrid","AS12430 VODAFONE ESPANA S.A.U."
"173.135.78.201",,,,,"Portland","Oregon","US","97204","45.5234,-122.6762","America/Los_Angeles","AS1239 Sprint"
"191.82.103.198",,,"191-82-103-198.speedy.com.ar",,"Mendoza","Mendoza","AR","5500","-32.8908,-68.8272","America/Argentina/Mendoza","AS22927 Telefonica de Argentina"
"81.248.235.147",,,"lreunion-656-1-38-147.w81-248.abo.wanadoo.fr",,"Saint-Denis","Réunion","RE","97400","-20.8823,55.4504","Indian/Reunion","AS3215 Orange S.A."
"6.234.101.35",,,,,"Yuma","Arizona","US","85369","32.7253,-114.6244","America/Phoenix","AS749 DoD Network Information Center"
"35.67.21.23",,,,,"Detroit","Michigan","US","48226","42.3314,-83.0457","America/Detroit","AS237 Merit Network Inc."
"187.199.178.27",,,"dsl-187-199-178-27-dyn.prod-infinitum.com.mx",,"Omaha","Nebraska","US","68101","41.2563,-95.9404","America/Chicago","AS8151 UNINET"
"27.143.109.203",,,"27-143-109-203.rev.home.ne.jp",,"Yokosuka","Kanagawa","JP","296-0001","35.2836,139.6672","Asia/Tokyo","AS9824 JCOM Co., Ltd."
"133.67.250.163",,,,,"Tsu","Mie","JP","514-0002","34.7333,136.5167","Asia/Tokyo","AS24261 Mie University"
"59.145.242.13",,,,,"Mumbai","Maharashtra","IN","400004","18.9500,72.8167","Asia/Kolkata","AS9498 BHARTI Airtel Ltd."
"221.169.49.152",,,"sw169-49-152.static.seed.net.tw",,"Taipei","Taiwan","TW",,"25.0531,121.5264","Asia/Taipei","AS4780 Digital United Inc."
"109.105.179.186",,,,,"Tyumen","Tyumen Oblast","RU","625000","57.1522,65.5272","Asia/Yekaterinburg","AS34038 PJSC ""Vimpelcom"""
"60.89.202.192",,,"softbank060089202192.bbtec.net",,"Tokyo","Tokyo","JP","101-8656","35.6895,139.6917","Asia/Tokyo","AS17676 SoftBank Corp."
"197.162.55.147",,,,,"Al Maḩallah al Kubrá","Gharbia","EG",,"30.9706,31.1669","Africa/Cairo","AS24863 Link Egypt (Link.NET)"
"186.135.2.148",,,"186-135-2-148.speedy.com.ar",,"Buenos Aires","Buenos Aires F.D.","AR","1871","-34.6131,-58.3772","America/Argentina/Buenos_Aires","AS22927 Telefonica de Argentina"
"124.6.134.78",,,,,"Seattle","Washington","US","98101","47.6062,-122.3321","America/Los_Angeles","AS4775 Globe Telecoms"
"55.154.161.250",,,,,"Columbus","Ohio","US","43209","39.9539,-82.9301","America/New_York","AS721 DoD Network Information Center"
"194.174.252.1",,,,,"Wuppertal","North Rhine-Westphalia","DE","42103","51.2563,7.1482","Europe/Berlin","AS702 Verizon Business"
"113.115.81.178",,,,,"Shanghai","Shanghai","CN","200000","31.2222,121.4581","Asia/Shanghai","AS4134 CHINANET-BACKBONE"
"186.54.68.246",,,"r186-54-68-246.dialup.adsl.anteldata.net.uy",,"Montevideo","Montevideo Department","UY","11100","-34.9033,-56.1882","America/Montevideo","AS6057 Administracion Nacional de Telecomunicaciones"
"73.108.76.238",,,"c-73-108-76-238.hsd1.ga.comcast.net",,"Rincon","Georgia","US","31326","32.2960,-81.2354","America/New_York","AS7922 Comcast Cable Communications, LLC"
"131.41.45.13",,,,,"San Antonio","Texas","US","78205","29.4241,-98.4936","America/Chicago","AS721 DoD Network Information Center"
"81.102.230.41",,,"walt-23-b2-v4wan-169844-cust1576.vm13.cable.virginm.net",,"London","England","GB","E1W","51.5085,-0.1257","Europe/London","AS5089 Virgin Media Limited"
"86.103.2.29",,,"86-103-2-29.ip.tng.de",,"Kiel","Schleswig-Holstein","DE","24103","54.3213,10.1349","Europe/Berlin","AS13101 TNG Stadtnetz GmbH"
"93.146.251.20",,,"net-93-146-251-20.cust.vodafonedsl.it",,"Milan","Lombardy","IT","20121","45.4643,9.1895","Europe/Rome","AS30722 Vodafone Italia S.p.A."
"60.153.124.80",,,"softbank060153124080.bbtec.net",,"Kashiwa","Chiba","JP","277-0005","35.8622,139.9773","Asia/Tokyo","AS17676 SoftBank Corp."
"125.225.212.244",,,"125-225-212-244.dynamic-ip.hinet.net",,"Taipei","Taiwan","TW",,"25.0531,121.5264","Asia/Taipei","AS3462 Data Communication Business Group"
"134.222.122.238",,,,,"Düsseldorf","North Rhine-Westphalia","DE","40210","51.2217,6.7762","Europe/Berlin","AS3257 GTT Communications Inc."
"133.223.159.151",,,,,"Asagaya-minami","Tokyo","JP","166-0000","35.7021,139.6375","Asia/Tokyo",
"152.140.239.181",,,,,"Chicago","Illinois","US","60607","41.8721,-87.6578","America/Chicago",
"165.114.224.47",,,,,"Eindhoven","North Brabant","NL","5611","51.4408,5.4778","Europe/Amsterdam",
"198.73.211.114",,,,,"London","Ontario","CA","N6A","42.9976,-81.2563","America/Toronto",
"36.13.239.172",,,"kd036013239172.ppp-bb.dion.ne.jp",,"Saitama","Saitama","JP","330-0046","35.9081,139.6566","Asia/Tokyo","AS2516 KDDI CORPORATION"
"193.108.17.115",,,,,"Groot-Bijgaarden","Flanders","BE","1702","50.8717,4.2497","Europe/Brussels","AS3257 GTT Communications Inc."
"77.7.223.184",,,"dynamic-077-007-223-184.77.7.pool.telefonica.de",,"Munich","Bavaria","DE","80097","48.1374,11.5755","Europe/Berlin","AS6805 Telefonica Germany GmbH & Co.OHG"
"168.36.49.167",,,,,"Austin","Texas","US","78701","30.2672,-97.7431","America/Chicago","AS1761 General Services Commission"
"125.89.163.224",,,,,"Shenzhen","Guangdong","CN","518000","22.5455,114.0683","Asia/Shanghai","AS4134 CHINANET-BACKBONE"
"7.146.35.122",,,,,"Columbus","Ohio","US","43218","39.9690,-83.0114","America/New_York","AS749 DoD Network Information Center"
"34.125.226.63",,,"63.226.125.34.bc.googleusercontent.com",,"Las Vegas","Nevada","US","89111","36.1750,-115.1372","America/Los_Angeles","AS396982 Google LLC"
"101.223.82.253",,,,,"Hyderābād","Telangana","IN","500001","17.3840,78.4564","Asia/Kolkata",
"130.92.201.49",,,"staff-201-49.eduroam.unibe.ch",,"Bern","Bern","CH","3000","46.9481,7.4474","Europe/Zurich","AS559 SWITCH"
"1.198.76.182",,,"198.1.broad.ha.dynamic.163data.com.cn",,"Shanghai","Shanghai","CN","200000","31.2222,121.4581","Asia/Shanghai","AS4134 CHINANET-BACKBONE"
"179.43.245.131",,,,,"Santo Domingo Este","Santo Domingo Province","DO","11605","18.4885,-69.8571","America/Santo_Domingo","AS27887 WIND Telecom S.A."
"174.61.77.54",,,"c-174-61-77-54.hsd1.fl.comcast.net",,"Miami","Florida","US","33101","25.7743,-80.1937","America/New_York","AS7922 Comcast Cable Communications, LLC"
"114.223.129.47",,,"47.129.223.114.broad.wx.js.dynamic.163data.com.cn",,"Shanghai","Shanghai","CN","200000","31.2222,121.4581","Asia/Shanghai","AS4134 CHINANET-BACKBONE"
"111.226.226.202",,,,,"Shanghai","Shanghai","CN","200000","31.2222,121.4581","Asia/Shanghai","AS4134 CHINANET-BACKBONE"
"155.164.18.235",,,"nothing.attdns.com",,"Indianapolis","Indiana","US","46204","39.7684,-86.1580","America/Indiana/Indianapolis",
"149.84.108.18",,,,,"Hornell","New York","US","14843","42.3278,-77.6611","America/New_York","AS13513 Alfred University"
"156.173.170.140",,,"host-156.173.170.140.etisalat.com.eg",,"Cairo","Cairo","EG",,"30.0626,31.2497","Africa/Cairo","AS36992 ETISALAT MISR"
"46.150.175.171",,,"46-150-175-171.broadband.opcom.ru",,"Mytishchi","Moscow Oblast","RU","141000","55.9110,37.7296","Europe/Moscow","AS49106 Opticom Group AO"
"42.219.228.159",,,,,"Jinrongjie","Beijing","CN","100000","39.9122,116.3561","Asia/Shanghai",
"152.234.65.155",,,"152-234-65-155.user.vivozap.com.br",,"Campinas","São Paulo","BR","13000-000","-22.9056,-47.0608","America/Sao_Paulo","AS26599 TELEFÔNICA BRASIL S.A"
"145.246.171.225",,,,,"London","England","GB","E1W","51.5085,-0.1257","Europe/London",
"167.104.180.235",,,,,"Fishers","Indiana","US","46037","39.9559,-85.9601","America/Indiana/Indianapolis",
"132.127.5.187",,,,,"Sierra Vista","Arizona","US","85613","31.5587,-110.3441","America/Phoenix","AS306 DoD Network Information Center"
"44.197.126.59",,,"ec2-44-197-126-59.compute-1.amazonaws.com",,"Ashburn","Virginia","US","20147","39.0437,-77.4875","America/New_York","AS14618 Amazon.com, Inc."
"8.243.4.138",,,"8-243-4-138.gblx.net.ar",,"Buenos Aires","Buenos Aires F.D.","AR","1871","-34.6131,-58.3772","America/Argentina/Buenos_Aires","AS3356 Level 3 Parent, LLC"
"9.230.41.239",,,,,"Durham","North Carolina","US","27709","36.0512,-78.8577","America/New_York",
"49.20.211.229",,,,,"Seoul","Seoul","KR","03141","37.5660,126.9784","Asia/Seoul","AS4766 Korea Telecom"
"165.38.56.205",,,,,"Charlotte","North Carolina","US","28255","35.2600,-80.8042","America/New_York",
"62.152.134.92",,,,,"Bratislava","Bratislava Region","SK","840 02","48.1482,17.1067","Europe/Bratislava","AS1902 Deutsche Telekom Cloud Services s.r.o."
"216.151.64.40",,,"dap-216-151-64-40.nfas.greensburg-tnt-2.sns234.pa.stargate.net",,"Greensburg","Pennsylvania","US","15601","40.3015,-79.5389","America/New_York","AS17054 Expedient"
"40.226.196.34",,,,,"Indianapolis","Indiana","US","46285","39.7795,-86.1328","America/Indiana/Indianapolis","AS4249 Eli Lilly and Company"
"204.34.243.93",,,,,"Columbus","Ohio","US","43209","39.9539,-82.9301","America/New_York","AS721 DoD Network Information Center"
"139.23.212.102",,,,,"Munich","Bavaria","DE","81739","48.1500,11.5833","Europe/Berlin",
"115.218.48.83",,,,,"Jiaxing","Zhejiang","CN","314000","30.7522,120.7500","Asia/Shanghai","AS4134 CHINANET-BACKBONE"
"21.97.154.92",,,,,"Columbus","Ohio","US","43218","39.9690,-83.0114","America/New_York","AS749 DoD Network Information Center"
"60.43.160.195",,,,,"Toyota","Aichi","JP","480-0134","35.0833,137.1500","Asia/Tokyo","AS4713 NTT Communications Corporation"
"198.166.198.233",,,,,"Calgary","Alberta","CA","T3S","51.0501,-114.0853","America/Edmonton","AS852 TELUS Communications Inc."
"18.72.115.111",,,,,"Seattle","Washington","US","98109","47.6339,-122.3476","America/Los_Angeles","AS16509 Amazon.com, Inc."
"94.37.250.128",,,,,"Seattle","Washington","US","98108","47.5413,-122.3129","America/Los_Angeles","AS16509 Amazon.com, Inc."
"16.131.3.140",,,,,"Seattle","Washington","US","98108","47.5413,-122.3129","America/Los_Angeles","AS16509 Amazon.com, Inc."
"175.230.206.232",,,,,"Seoul","Seoul","KR","03141","37.5660,126.9784","Asia/Seoul","AS4766 Korea Telecom"
"96.115.67.230",,,,,"Ashburn","Virginia","US","20147","39.0437,-77.4875","America/New_York","AS7922 Comcast Cable Communications, LLC"
"116.175.11.222",,,,,"Ningbo","Zhejiang","CN","315000","29.8782,121.5494","Asia/Shanghai","AS4837 CHINA UNICOM China169 Backbone"
"195.226.203.234",,,,,"Kurchatov","Kursk Oblast","RU","307250","51.6536,35.6865","Europe/Moscow","AS43038 MTS PJSC"
"161.168.126.136",,,"walmart.com",,"Kansas City","Missouri","US","64106","39.0997,-94.5786","America/Chicago","AS32851 Wal-Mart Stores, Inc."
"161.71.2.223",,,,,"London","England","GB","E1W","51.5085,-0.1257","Europe/London","AS14340 Salesforce.com, Inc."
"61.95.76.233",,,"dsl-61-95-76-233.request.com.au",,"Sydney","New South Wales","AU","1001","-33.8678,151.2073","Australia/Sydney","AS2764 AAPT Limited"
"193.217.248.188",,,,,"Kista","Stockholm","SE","164 40","59.4032,17.9448","Europe/Stockholm","AS1257 Tele2 Sverige AB"
"26.240.219.199",,,,,"Columbus","Ohio","US","43218","39.9690,-83.0114","America/New_York","AS749 DoD Network Information Center"
"44.73.3.217",,,,,"New York City","New York","US","10001","40.7143,-74.0060","America/New_York","AS7377 University of California, San Diego"
"51.250.122.123",,,,,"Moscow","Moscow","RU","101000","55.7522,37.6156","Europe/Moscow","AS200350 Yandex.Cloud LLC"
"85.240.254.83",,,"bl7-254-83.dsl.telepac.pt",,"Loures","Lisbon","PT","2670-012","38.8309,-9.1684","Europe/Lisbon","AS3243 MEO - SERVICOS DE COMUNICACOES E MULTIMEDIA S.A."
"69.82.61.135",,,"135.sub-69-82-61.myvzw.com",,"Ashburn","Virginia","US","20147","39.0437,-77.4875","America/New_York","AS22394 Verizon Business"
"101.90.40.193",,,,,"Shanghai","Shanghai","CN","200000","31.2222,121.4581","Asia/Shanghai","AS4812 China Telecom (Group)"
"98.255.160.110",,,"c-98-255-160-110.hsd1.ca.comcast.net",,"Stockton","California","US","95201","37.9577,-121.2908","America/Los_Angeles","AS7922 Comcast Cable Communications, LLC"
"79.227.202.117",,,"p4fe3ca75.dip0.t-ipconnect.de",,"Gießen","Hesse","DE","35390","50.5873,8.6755","Europe/Berlin","AS3320 Deutsche Telekom AG"
"143.212.47.226",,,,,"Columbus","Ohio","US","43209","39.9539,-82.9301","America/New_York","AS1602 Headquarters, USAISC"
"121.67.144.20",,,,,"Seoul","Seoul","KR","03141","37.5660,126.9784","Asia/Seoul","AS3786 LG DACOM Corporation"
"63.67.150.226",,,,,"Ashburn","Virginia","US","20147","39.0437,-77.4875","America/New_York","AS701 Verizon Business"
"33.212.169.157",,,,,"Columbus","Ohio","US","43218","39.9690,-83.0114","America/New_York","AS749 DoD Network Information Center"
"65.27.212.129",,,"syn-065-027-212-129.res.spectrum.com",,"Ripley","Tennessee","US","38063","35.7454,-89.5298","America/Chicago","AS10796 Charter Communications Inc"
"77.21.150.75",,,"ip4d15964b.dynamic.kabel-deutschland.de",,"Hamburg","Hamburg","DE","20038","53.5507,9.9930","Europe/Berlin","AS3209 Vodafone GmbH"
"62.251.170.72",,,"ll62-72-170-251-62.ll62.iam.net.ma",,"Casablanca","Casablanca-Settat","MA","29640","33.5883,-7.6114","Africa/Casablanca","AS6713 Office National des Postes et Telecommunications ONPT (Maroc Telecom) / IAM"
"202.194.199.70",,,,,"Beijing","Beijing","CN","100000","39.9075,116.3972","Asia/Shanghai","AS4538 China Education and Research Network Center"
"82.88.241.226",,,"host-241-226.pool8288.interbusiness.it",,"Bergamo","Lombardy","IT","24100","45.6960,9.6672","Europe/Rome","AS3269 Telecom Italia S.p.A."
"45.182.28.148",,,,,"Urdinarrain","Entre Rios","AR","2826","-32.6910,-58.8884","America/Argentina/Cordoba","AS265816 DELCO IMAGEN S.A."
"161.177.41.214",,,"walmart.com",,"Bentonville","Arkansas","US","72716","36.3728,-94.2088","America/Chicago","AS10695 Wal-Mart Stores, Inc."
"191.91.45.159",,,"dinamic-tigo-191-91-45-159.tigo.com.co",,"Medellín","Antioquia","CO","050001","6.2518,-75.5636","America/Bogota","AS27831 Colombia Móvil"
"23.92.205.75",,,"dncc-23-92-205-75.smartcity.com",,"Denver","Colorado","US","80203","39.7392,-104.9847","America/Denver","AS14976 SMART CITY NETWORKS, LIMITED PARTNERSHIP"
"100.4.40.132",,,"pool-100-4-40-132.nrflva.east.verizon.net",,"Chesapeake","Virginia","US","23324","36.8190,-76.2749","America/New_York","AS701 Verizon Business"
"138.87.180.254",,,,,"Normal","Illinois","US","61761","40.5142,-88.9906","America/Chicago","AS7386 Illinois State University"
"3.157.63.220",,,,,"Hilliard","Ohio","US","43026","40.0334,-83.1582","America/New_York","AS16509 Amazon.com, Inc."
"203.99.96.114",,,"203-99-96-114.telkomsat.co.id",,"Depok","West Java","ID",,"-6.4000,106.8186","Asia/Jakarta","AS56241 PT Telkom Satelit Indonesia"
"216.32.4.105",,,,,"Seattle","Washington","US","98101","47.6062,-122.3321","America/Los_Angeles","AS3561 CenturyLink Communications, LLC"
"111.78.64.133",,,,,"Shanghai","Shanghai","CN","200000","31.2222,121.4581","Asia/Shanghai","AS4134 CHINANET-BACKBONE"
"210.160.90.52",,,,,"Urayasu","Chiba","JP","279-0000","35.6588,139.9006","Asia/Tokyo","AS4713 NTT Communications Corporation"
"128.16.32.183",,,,,"London","England","GB","E1W","51.5085,-0.1257","Europe/London","AS786 Jisc Services Limited"
"163.129.70.210",,,,,"Riyadh","Riyadh Region","SA",,"24.6877,46.7219","Asia/Riyadh","AS13445 Cisco Webex LLC"
"10.144.131.89",,true,,,,,,,,,
"45.64.74.86",,,,,"Hong Kong","Hong Kong","HK","999077","22.2783,114.1747","Asia/Hong_Kong","AS55933 Cloudie Limited"
"182.225.2.156",,,,,"Cheonan","Chungcheongnam-do","KR","31126","36.8065,127.1522","Asia/Seoul","AS17858 LG POWERCOMM"
"110.235.207.187",,,,,"Mumbai","Maharashtra","IN","400004","18.9500,72.8167","Asia/Kolkata",
"183.39.94.209",,,,,"Shanghai","Shanghai","CN","200000","31.2222,121.4581","Asia/Shanghai","AS4134 CHINANET-BACKBONE"
"177.116.108.246",,,"177-116-108-246.user.vivozap.com.br",,"Osasco","São Paulo","BR","06000-000","-23.5325,-46.7917","America/Sao_Paulo","AS26599 TELEFÔNICA BRASIL S.A"
"10.191.172.154",,true,,,,,,,,,
"198.39.35.23",,,,,"Cedar Rapids","Iowa","US","52499","42.0794,-91.5992","America/Chicago","AS11857 Aegon USA, Inc."
"35.220.238.127",,,"127.238.220.35.bc.googleusercontent.com",,"Hong Kong","Hong Kong","HK","999077","22.2783,114.1747","Asia/Hong_Kong","AS396982 Google LLC"
"198.24.183.157",,,,,"Ashburn","Virginia","US","20147","39.0437,-77.4875","America/New_York","AS19437 SECURED SERVERS LLC"
"93.52.44.101",,,"93-52-44-101.ip116.fastwebnet.it",,"Milan","Lombardy","IT","20139","45.4643,9.1895","Europe/Rome","AS12874 Fastweb SpA"
"147.234.20.46",,,,,"Netanya","Central District","IL",,"32.3329,34.8599","Asia/Jerusalem","AS205577 TNUVA CENTRAL CO-OPERATIVE FOR THE MARKETING OF AGRICULTURAL PRODUCE IN ISRAEL LTD"
"166.7.230.111",,,,,"Missoula","Montana","US","59806","46.8721,-113.9940","America/Denver","AS4152 USDA"
"223.32.70.156",,,,,"Iksan","Jeollabuk-do","KR","54592","35.9439,126.9544","Asia/Seoul","AS9644 SK Telecom"
"7.105.184.86",,,,,"Columbus","Ohio","US","43218","39.9690,-83.0114","America/New_York","AS749 DoD Network Information Center"
"184.59.28.72",,,"syn-184-059-028-072.res.spectrum.com",,"Elkhorn","Wisconsin","US","53121","42.6728,-88.5445","America/Chicago","AS10796 Charter Communications Inc"
"170.225.23.251",,,,,"Colorado Springs","Colorado","US","80901","38.8339,-104.8214","America/Denver","AS2140 Kyndryl"
"147.119.62.178",,,,,"Chesterfield","England","GB","S40","53.2340,-1.4462","Europe/London",
"155.19.119.0",,,,,"Columbus","Ohio","US","43209","39.9539,-82.9301","America/New_York","AS367 DoD Network Information Center"
"194.88.79.54",,,"user-79-54.jakinternet.co.uk",,"London","England","GB","EC1V","51.5265,-0.0986","Europe/London","AS3356 Level 3 Parent, LLC"
"219.193.239.152",,,"softbank219193239152.bbtec.net",,"Ebara","Tokyo","JP","105-0022","35.6500,139.7333","Asia/Tokyo","AS17676 SoftBank Corp."
"34.92.221.183",,,"183.221.92.34.bc.googleusercontent.com",,"Hong Kong","Hong Kong","HK","999077","22.2783,114.1747","Asia/Hong_Kong","AS396982 Google LLC"
"1.7.29.72",,,,,"Mumbai","Maharashtra","IN","400004","18.9500,72.8167","Asia/Kolkata",
"40.192.99.27",,,"ec2-40-192-99-27.ap-south-2.compute.amazonaws.com",,"Hyderābād","Telangana","IN","500001","17.3840,78.4564","Asia/Kolkata","AS16509 Amazon.com, Inc."
"205.69.66.135",,,,,"Columbus","Ohio","US","43209","39.9539,-82.9301","America/New_York","AS721 DoD Network Information Center"
"141.121.30.32",,,,,"Santa Rosa","California","US","95403","38.4822,-122.7473","America/Los_Angeles",
"206.62.122.93",,,"93.122.62.206.static.deltainternet.net.br",,"Carapicuíba","São Paulo","BR","06300-000","-23.5227,-46.8350","America/Sao_Paulo","AS262865 Ired Internet Ltda"
"12.246.170.239",,,,,"Los Angeles","California","US","90009","34.0522,-118.2437","America/Los_Angeles","AS7018 AT&T Services, Inc."
"200.22.195.243",,,,,"Santiago","Santiago Metropolitan","CL","8320000","-33.4569,-70.6483","America/Santiago",
"28.149.72.129",,,,,"Columbus","Ohio","US","43218","39.9690,-83.0114","America/New_York","AS749 DoD Network Information Center"
"129.102.184.189",,,,,"Paris","Île-de-France","FR","75004","48.8567,2.3497","Europe/Paris","AS2200 Renater"
"16.51.235.240",,,"ec2-16-51-235-240.ap-southeast-4.compute.amazonaws.com",,"Melbourne","Victoria","AU","3000","-37.8140,144.9633","Australia/Melbourne","AS16509 Amazon.com, Inc."
"161.161.26.115",,,,,"North Plainfield","New Jersey","US","07059","40.6301,-74.4274","America/New_York",
"32.13.122.242",,,,,"New York City","New York","US","10001","40.7143,-74.0060","America/New_York","AS7018 AT&T Services, Inc."
"218.238.171.184",,,,,"Daejeon","Daejeon","KR","35228","36.3491,127.3849","Asia/Seoul","AS9318 SK Broadband Co Ltd"
"27.215.118.94",,,,,"Ningbo","Zhejiang","CN","315000","29.8782,121.5494","Asia/Shanghai","AS4837 CHINA UNICOM China169 Backbone"
"78.100.105.143",,,,,"Doha","Baladīyat ad Dawḩah","QA",,"25.2855,51.5310","Asia/Qatar","AS8781 Ooredoo Q.S.C."
"29.168.185.63",,,,,"Independence","Kansas","US","67301","37.2242,-95.7083","America/Chicago","AS749 DoD Network Information Center"
"211.97.88.141",,,,,"Shanghai","Shanghai","CN","200000","31.2222,121.4581","Asia/Shanghai","AS4837 CHINA UNICOM China169 Backbone"
"176.96.83.253",,,,,"Kurgan","Kurgan Oblast","RU","640000","55.4500,65.3333","Asia/Yekaterinburg","AS48978 Orbitel LLC"
"110.150.1.201",,,"cpe-110-150-1-201.nb08.nsw.asp.telstra.net",,"Sydney","New South Wales","AU","1001","-33.8678,151.2073","Australia/Sydney","AS1221 Telstra Limited"
"32.240.176.64",,,,,"Seattle","Washington","US","98108","47.5413,-122.3129","America/Los_Angeles","AS16509 Amazon.com, Inc."
"107.247.202.71",,,"mobile-107-247-202-71.mycingular.net",,"Redmond","Washington","US","98052","47.6740,-122.1215","America/Los_Angeles",
"155.37.19.43",,,,,"Danbury","Connecticut","US","06810","41.3948,-73.4540","America/New_York",
"31.127.129.152",,,"host31-127-129-152.range31-127.btcentralplus.com",,"Hemingford Grey","England","GB","PE27","52.3176,-0.1003","Europe/London","AS2856 British Telecommunications PLC"
"30.229.179.194",,,,,"Independence","Kansas","US","67301","37.2242,-95.7083","America/Chicago","AS749 DoD Network Information Center"
"188.205.152.176",,,"static.kpn.net",,"Rotterdam","South Holland","NL","3011","51.9225,4.4792","Europe/Amsterdam","AS1136 KPN B.V."
"42.61.10.112",,,,,"Singapore","Singapore","SG","018989","1.2897,103.8501","Asia/Singapore","AS3758 SingNet"
"8.244.162.185",,,,,"Monroe","Louisiana","US","71203","32.5530,-92.0422","America/Chicago","AS3356 Level 3 Parent, LLC"
"184.146.10.88",,,"bras-base-otwaon1093w-grc-11-184-146-10-88.dsl.bell.ca",,"Ottawa","Ontario","CA","K1R","45.4112,-75.6981","America/Toronto","AS577 Bell Canada"
"160.74.183.38",,,,,"Tokyo","Tokyo","JP","101-8656","35.6895,139.6917","Asia/Tokyo","AS2513 Japan Science and Technology Agency"
"119.163.214.161",,,,,"Qingdao","Shandong","CN","266000","36.0649,120.3804","Asia/Shanghai","AS4837 CHINA UNICOM China169 Backbone"
"21.190.11.223",,,,,"Columbus","Ohio","US","43218","39.9690,-83.0114","America/New_York","AS749 DoD Network Information Center"
"80.92.209.207",,,,,"Saratov","Saratov Oblast","RU","410000","51.5406,46.0086","Europe/Saratov","AS29190 MTS PJSC"
"62.27.235.199",,,,,"Furth im Wald","Bavaria","DE","93437","49.3096,12.8416","Europe/Berlin","AS12312 ecotel communication ag"
"192.95.36.246",,,"vmta15.korajobs.com",,"Montréal","Quebec","CA","H3H","45.5088,-73.5878","America/Toronto","AS16276 OVH SAS"
"148.25.159.90",,,,,"Columbus","Ohio","US","43218","39.9690,-83.0114","America/New_York","AS721 DoD Network Information Center"
"178.34.103.183",,,,,"Krasnodar","Krasnodar Krai","RU","350000","45.0448,38.9760","Europe/Moscow","AS12389 PJSC Rostelecom"
"93.170.203.44",,,,,"Vidnoye","Moscow Oblast","RU","142700","55.5523,37.7088","Europe/Moscow","AS61308 PVONET LTD"
"34.169.232.37",,,"37.232.169.34.bc.googleusercontent.com",,"The Dalles","Oregon","US","97058","45.5946,-121.1787","America/Los_Angeles","AS396982 Google LLC"
"91.204.200.167",,,,,"Kolomna","Moscow Oblast","RU","140400","55.0711,38.7840","Europe/Moscow","AS47564 Proizvodstvennoe Obyedineniye Tonus Ltd."
"205.45.234.42",,,,,"Columbus","Ohio","US","43218","39.9690,-83.0114","America/New_York","AS749 DoD Network Information Center"
"136.104.90.223",,,,,"Mountain View","California","US","94043","37.4056,-122.0775","America/Los_Angeles",
"161.25.82.11",,,,,"Santiago","Santiago Metropolitan","CL","8320000","-33.4569,-70.6483","America/Santiago",
"13.88.251.53",,,,,"Toronto","Ontario","CA","M5A","43.7064,-79.3986","America/Toronto","AS8075 Microsoft Corporation"
"60.166.231.236",,,,,"Jiaxing","Zhejiang","CN","314000","30.7522,120.7500","Asia/Shanghai","AS4134 CHINANET-BACKBONE"
"196.121.240.10",,,,,"Casablanca","Casablanca-Settat","MA","29640","33.5883,-7.6114","Africa/Casablanca","AS36925 MEDITELECOM"
"150.231.20.169",,,,,"Hershey","Pennsylvania","US","17033","40.2859,-76.6502","America/New_York","AS3999 The Pennsylvania State University"
"52.196.112.199",,,"ec2-52-196-112-199.ap-northeast-1.compute.amazonaws.com",,"Tokyo","Tokyo","JP","101-8656","35.6895,139.6917","Asia/Tokyo","AS16509 Amazon.com, Inc."
"168.55.35.243",,,,,"Austin","Texas","US","78701","30.2672,-97.7431","America/Chicago","AS1761 General Services Commission"
"200.164.13.160",,,"200164013160.user.veloxzone.com.br",,"Rio de Janeiro","Rio de Janeiro","BR","20000-000","-22.9064,-43.1822","America/Sao_Paulo","AS7738 V tal"
"109.42.41.157",,,"ip-109-42-41-157.web.vodafone.de",,"Heidelberg","Baden-Wurttemberg","DE","69115","49.4077,8.6908","Europe/Berlin","AS3209 Vodafone GmbH"
"40.198.240.246",,,,,"New York City","New York","US","10001","40.7143,-74.0060","America/New_York","AS4249 Eli Lilly and Company"
"26.105.49.129",,,,,"Columbus","Ohio","US","43218","39.9690,-83.0114","America/New_York","AS749 DoD Network Information Center"
"189.198.67.252",,,"customer-tep-67-252.megared.net.mx",,"Tepic","Nayarit","MX","63197","21.5095,-104.8957","America/Mazatlan",
"45.241.13.208",,,,,"Cairo","Cairo","EG",,"30.0626,31.2497","Africa/Cairo","AS24863 Link Egypt (Link.NET)"
"201.113.165.203",,,"dup-201-113-165-203.prod-dial.com.mx",,"Mexico City","Mexico City","MX","03020","19.4285,-99.1277","America/Mexico_City","AS8151 UNINET"
"87.234.36.48",,,"port-87-234-36-48.static.as20676.net",,"Krefeld","North Rhine-Westphalia","DE","47798","51.3364,6.5538","Europe/Berlin","AS20676 Plusnet GmbH"
"157.130.28.27",,,,,"New York City","New York","US","10001","40.7143,-74.0060","America/New_York","AS701 Verizon Business"
"104.155.121.252",,,"252.121.155.104.bc.googleusercontent.com",,"Brussels","Brussels Capital","BE","1000","50.8505,4.3488","Europe/Brussels","AS396982 Google LLC"
"48.19.99.211",,,,,"Newark","New Jersey","US","07102","40.7357,-74.1724","America/New_York",
"210.136.14.108",,,"st0052.nas811.saga.nttpc.ne.jp",,"Ōtsu","Shiga","JP","520-0043","35.0000,135.8667","Asia/Tokyo","AS2514 NTT PC Communications, Inc."
"59.208.79.116",,,,,"Beijing","Beijing","CN","100000","39.9075,116.3972","Asia/Shanghai",
"4.105.134.118",,,,,"Monroe","Louisiana","US","71203","32.5530,-92.0422","America/Chicago","AS3356 Level 3 Parent, LLC"
"66.23.166.248",,,,,"Kuala Lumpur","Kuala Lumpur","MY","50050","3.1412,101.6865","Asia/Kuala_Lumpur","AS38466 U Mobile Sdn Bhd"
"3.70.1.133",,,"ec2-3-70-1-133.eu-central-1.compute.amazonaws.com",,"Frankfurt am Main","Hesse","DE","60306","50.1155,8.6842","Europe/Berlin","AS16509 Amazon.com, Inc."
"6.44.165.160",,,,,"Yuma","Arizona","US","85369","32.7253,-114.6244","America/Phoenix","AS367 DoD Network Information Center"
"201.114.165.141",,,"dsl-201-114-165-141-dyn.prod-infinitum.com.mx",,"Mexico City","Mexico City","MX","03020","19.4285,-99.1277","America/Mexico_City","AS8151 UNINET"
"124.180.225.109",,,"cpe-124-180-225-109.qb08.qld.asp.telstra.net",,"Sydney","New South Wales","AU","1001","-33.8678,151.2073","Australia/Sydney","AS1221 Telstra Limited"
"138.210.196.19",,,"ks-138-210-196-19.dhcp.embarqhsd.net",,"Ozawkie","Kansas","US","66070","39.2333,-95.4669","America/Chicago","AS2379 CenturyLink Communications, LLC"
"135.29.211.116",,,"nothing.attdns.com",,"Indianapolis","Indiana","US","46204","39.7684,-86.1580","America/Indiana/Indianapolis",
"82.75.200.117",,,"82-75-200-117.cable.dynamic.v4.ziggo.nl",,"Boxtel","North Brabant","NL","5281","51.5908,5.3292","Europe/Amsterdam","AS33915 Vodafone Libertel B.V."
"162.207.77.170",,,"162-207-77-170.lightspeed.tulsok.sbcglobal.net",,"Tulsa","Oklahoma","US","74107","36.1042,-96.0244","America/Chicago","AS7018 AT&T Services, Inc."
"112.56.160.202",,,,,"Shanghai","Shanghai","CN","200000","31.2222,121.4581","Asia/Shanghai","AS9808 China Mobile Communications Group Co., Ltd."
"85.239.236.80",,,"vmi1513983.contaboserver.net",,"Seattle","Washington","US","98101","47.6062,-122.3321","America/Los_Angeles","AS40021 Nubes, LLC"
"50.202.8.53",,,,,"Dumbarton","Virginia","US","23230","37.6038,-77.4914","America/New_York","AS7922 Comcast Cable Communications, LLC"
"24.181.236.233",,,"syn-024-181-236-233.res.spectrum.com",,"Worcester","Massachusetts","US","01606","42.3110,-71.7958","America/New_York","AS20115 Charter Communications"
"171.101.134.74",,,"cm-171-101-134-74.revip11.asianet.co.th",,"Udon Thani","Udon Thani","TH","41000","17.4157,102.7859","Asia/Bangkok","AS17552 True Online"
"98.39.212.221",,,"c-98-39-212-221.hsd1.tx.comcast.net",,"Houston","Texas","US","77002","29.7633,-95.3633","America/Chicago","AS7922 Comcast Cable Communications, LLC"
"134.247.5.188",,,,,"Hallbergmoos","Bavaria","DE","85399","48.3275,11.7514","Europe/Berlin","AS34127 Flughafen Muenchen GmbH"
"155.140.33.42",,,,,"Montreuil","Île-de-France","FR","93100","48.8642,2.4432","Europe/Paris","AS20617 BNP PARIBAS S.A."
"41.0.10.107",,,"vc-vb-41-0-10-107.ens.vodacom.co.za",,"eMbalenhle","Mpumalanga","ZA","2285","-26.5333,29.0667","Africa/Johannesburg","AS36994 Vodacom"
"104.80.232.55",,,"a104-80-232-55.deploy.static.akamaitechnologies.com",,"Sydney","New South Wales","AU","1001","-33.8678,151.2073","Australia/Sydney","AS16625 Akamai Technologies, Inc."
"146.69.70.214",,,,,"Denver","Colorado","US","80221","39.8380,-104.9988","America/Denver",
"211.42.9.0",,,,,"Incheon","Incheon","KR","21505","37.4565,126.7052","Asia/Seoul","AS9316 DACOM-PUBNETPLUS"
"89.21.156.229",,,,,"Moscow","Moscow","RU","101000","55.7522,37.6156","Europe/Moscow","AS15672 OOO Telecom TZ"
"207.157.126.125",,,,,"Huntsville","Alabama","US","35804","34.7304,-86.5859","America/Chicago","AS3464 Alabama Supercomputer Authority"
"89.6.100.149",,,"static-149-100-6-89.ipcom.comunitel.net",,"Murcia","Murcia","ES","30001","37.9870,-1.1300","Europe/Madrid","AS12430 VODAFONE ESPANA S.A.U."
"86.220.59.252",,,"lfbn-ann-1-84-252.w86-220.abo.wanadoo.fr",,"Athis-de-l'Orne","Normandy","FR","61430","48.8167,-0.5000","Europe/Paris","AS3215 Orange S.A."
"173.232.121.213",,,"subtract-shirt.resstell.net",,"Seattle","Washington","US","98101","47.6062,-122.3321","America/Los_Angeles","AS62904 Eonix Corporation"
"14.200.197.126",,,"14-200-197-126.static.tpgi.com.au",,"Sydney","New South Wales","AU","1001","-33.8678,151.2073","Australia/Sydney","AS7545 TPG Telecom Limited"
"217.233.219.196",,,"pd9e9dbc4.dip0.t-ipconnect.de",,"Hamburg","Hamburg","DE","20038","53.5507,9.9930","Europe/Berlin","AS3320 Deutsche Telekom AG"
"164.75.163.220",,,,,"Canberra","Australian Capital Territory","AU","2600","-35.2835,149.1281","Australia/Sydney",
"83.207.115.164",,,,,"Issy-les-Moulineaux","Île-de-France","FR","92130","48.8210,2.2772","Europe/Paris",
"150.83.4.238",,,,,"Otaru","Hokkaido","JP","047-0006","43.1894,141.0022","Asia/Tokyo","AS2907 Research Organization of Information and Systems, National Institute of Informatics"
"171.150.178.172",,,,,"Charlotte","North Carolina","US","28255","35.2600,-80.8042","America/New_York",
"64.89.183.39",,,,,"Kearney","Nebraska","US","68847","40.6995,-99.0815","America/Chicago","AS7896 The Board of Regents of the University of Nebraska"
"158.135.64.240",,,,,"Huntsville","Texas","US","77343","30.7235,-95.5508","America/Chicago","AS33187 Sam Houston State University"
"195.164.171.146",,,,,"Poznań","Greater Poland","PL","61-101","52.4069,16.9299","Europe/Warsaw","AS204679 NAUKOWA I AKADEMICKA SIEC KOMPUTEROWA - PANSTWOWY INSTYTUT BADAWCZY"
"52.1.78.30",,,"ec2-52-1-78-30.compute-1.amazonaws.com",,"Ashburn","Virginia","US","20147","39.0437,-77.4875","America/New_York","AS14618 Amazon.com, Inc."
"173.252.44.183",,,"host-173-252-44-183.public.eastlink.ca",,"Calgary","Alberta","CA","T3S","51.0501,-114.0853","America/Edmonton","AS11260 EastLink"
"57.232.212.116",,,,,"Vernier","Geneva","CH","1214","46.2170,6.0850","Europe/Zurich",
"200.136.146.93",,,,,"São Paulo","São Paulo","BR","01000-000","-23.5475,-46.6361","America/Sao_Paulo","AS52992 UNIVERSIDADE FEDERAL DE SAO PAULO"
"120.32.147.210",,,"210.147.32.120.broad.xm.fj.dynamic.163data.com.cn",,"Shanghai","Shanghai","CN","200000","31.2222,121.4581","Asia/Shanghai","AS4134 CHINANET-BACKBONE"
"147.114.91.132",,,,,"London","England","GB","EC2M","51.5191,-0.0882","Europe/London",
"2.61.10.58",,,,,"Abakan","Khakasiya Republic","RU","655000","53.7156,91.4292","Asia/Krasnoyarsk","AS12389 PJSC Rostelecom"
"47.82.77.181",,,,,"Hong Kong","Hong Kong","HK","999077","22.2783,114.1747","Asia/Hong_Kong","AS45102 Alibaba (US) Technology Co., Ltd."
"76.0.164.168",,,"nc-76-0-164-168.dhcp.embarqhsd.net",,"Hamilton","Texas","US","76531","31.7038,-98.1239","America/Chicago","AS209 CenturyLink Communications, LLC"
"156.235.3.171",,,,,"Shenzhen","Guangdong","CN","518000","22.5455,114.0683","Asia/Shanghai","AS40065 CNSERVERS LLC"
"197.187.216.106",,,"106-216-187-197.r.airtel.co.tz",,"Dar es Salaam","Dar es Salaam Region","TZ",,"-6.8235,39.2695","Africa/Dar_es_Salaam","AS37133 Airtel Tanzania"
"214.247.164.80",,,,,"Columbus","Ohio","US","43218","39.9690,-83.0114","America/New_York","AS749 DoD Network Information Center"
"14.105.144.122",,,,,"Shanghai","Shanghai","CN","200000","31.2222,121.4581","Asia/Shanghai","AS4134 CHINANET-BACKBONE"
"57.166.147.242",,,,,"Redmond","Washington","US","98052","47.6740,-122.1215","America/Los_Angeles","AS8075 Microsoft Corporation"
"105.136.156.29",,,,,"Casablanca","Casablanca-Settat","MA","29640","33.5883,-7.6114","Africa/Casablanca","AS6713 Office National des Postes et Telecommunications ONPT (Maroc Telecom) / IAM"
"116.237.223.50",,,,,"Shanghai","Shanghai","CN","200000","31.2222,121.4581","Asia/Shanghai","AS4812 China Telecom (Group)"
"83.80.89.29",,,"5350591d.static.ziggozakelijk.nl",,"Amersfoort","Utrecht","NL","3811","52.1550,5.3875","Europe/Amsterdam","AS33915 Vodafone Libertel B.V."
"100.137.90.188",,,,,"Bellevue","Washington","US","98006","47.5614,-122.1552","America/Los_Angeles","AS21928 T-Mobile USA, Inc."
"38.210.156.148",,,,,"Petrópolis","Rio de Janeiro","BR","25600-000","-22.5050,-43.1786","America/Sao_Paulo","AS174 Cogent Communications"
"64.57.44.102",,,,,"Colorado Springs","Colorado","US","80901","38.8339,-104.8214","America/Denver",
"199.103.32.145",,,,,"North Auburn","California","US","95603","38.9313,-121.0819","America/Los_Angeles","AS36482 County of Placer"
"72.192.101.196",,,"ip72-192-101-196.tu.ok.cox.net",,"Tulsa","Oklahoma","US","74102","36.1540,-95.9928","America/Chicago","AS22773 Cox Communications Inc."
"138.181.222.38",,,,,"Columbus","Ohio","US","43218","39.9690,-83.0114","America/New_York","AS749 DoD Network Information Center"
"157.164.245.130",,,,,"Brussels","Brussels Capital","BE","1000","50.8505,4.3488","Europe/Brussels","AS6696 VERIXI SA"
"169.67.220.37",,,,,"New York City","New York","US","10271","40.7089,-74.0111","America/New_York",
"20.147.6.179",,,,,"Redmond","Washington","US","98052","47.6740,-122.1215","America/Los_Angeles",
"112.86.148.212",,,,,"Ningbo","Zhejiang","CN","315000","29.8782,121.5494","Asia/Shanghai","AS4837 CHINA UNICOM China169 Backbone"
"153.178.166.93",,,"p565093-ipxg00b01fukui.fukui.ocn.ne.jp",,"Fukui-shi","Fukui","JP","910-0004","36.0644,136.2226","Asia/Tokyo","AS4713 NTT Communications Corporation"
"189.20.224.220",,,,,"São Paulo","São Paulo","BR","01000-000","-23.5475,-46.6361","America/Sao_Paulo","AS10429 TELEFÔNICA BRASIL S.A"
"69.61.96.139",,,,,"Atlanta","Georgia","US","30302","33.7490,-84.3880","America/New_York","AS22653 Cyber Wurx LLC"
"37.213.85.222",,,"mm-222-85-213-37.grodno.dynamic.pppoe.byfly.by",,"Lida","Grodnenskaya","BY","231300","53.8833,25.2997","Europe/Minsk","AS6697 Republican Unitary Telecommunication Enterprise Beltelecom"
"70.130.169.235",,,,,"Lubbock","Texas","US","79424","33.5159,-101.9344","America/Chicago","AS7018 AT&T Services, Inc."
"112.196.12.19",,,,,"Ludhiāna","Punjab","IN","141120","30.9120,75.8538","Asia/Kolkata","AS17917 Quadrant Televentures Limited"
"137.135.250.168",,,,,"Dublin","Leinster","IE","D02","53.3331,-6.2489","Europe/Dublin","AS8075 Microsoft Corporation"
"74.58.165.67",,,"modemcable067.165-58-74.mc.videotron.ca",,"Montréal","Quebec","CA","H3H","45.5088,-73.5878","America/Toronto","AS5769 Videotron Ltee"
"93.169.212.219",,,,,"Riyadh","Riyadh Region","SA",,"24.6877,46.7219","Asia/Riyadh","AS39891 Saudi Telecom Company JSC"
"59.12.96.11",,,,,"Suwon","Gyeonggi-do","KR","16250","37.2911,127.0089","Asia/Seoul","AS4766 Korea Telecom"
"175.166.115.182",,,,,"Ningbo","Zhejiang","CN","315000","29.8782,121.5494","Asia/Shanghai","AS4837 CHINA UNICOM China169 Backbone"
"220.179.173.114",,,,,"Shanghai","Shanghai","CN","200000","31.2222,121.4581","Asia/Shanghai","AS4134 CHINANET-BACKBONE"
"76.136.92.235",,,"c-76-136-92-235.hsd1.il.comcast.net",,"Chicago","Illinois","US","60666","41.8500,-87.6500","America/Chicago","AS7922 Comcast Cable Communications, LLC"
"219.98.242.240",,,"p62f2f0.iwatnt01.ap.so-net.ne.jp",,"Saitama","Saitama","JP","330-0046","35.9081,139.6566","Asia/Tokyo","AS2527 Sony Network Communications Inc."
"180.224.54.115",,,,,"Gwangmyeong","Gyeonggi-do","KR","14212","37.4772,126.8664","Asia/Seoul","AS17858 LG POWERCOMM"
"148.234.210.167",,,,,"San Nicolás de los Garza","Nuevo León","MX","65516","25.7417,-100.3022","America/Monterrey","AS3454 Universidad Autonoma de Nuevo Leon"
"72.128.135.172",,,"syn-072-128-135-172.biz.spectrum.com",,"Dallas","Texas","US","75201","32.7831,-96.8067","America/Chicago","AS11427 Charter Communications Inc"
"93.151.52.152",,,"net-93-151-52-152.cust.dsl.teletu.it",,"Naples","Campania","IT","80100","40.8522,14.2681","Europe/Rome","AS44957 Vodafone Italia S.p.A."
"97.4.209.133",,,"133.sub-97-4-209.myvzw.com",,"Ashburn","Virginia","US","20147","39.0437,-77.4875","America/New_York","AS22394 Verizon Business"
"196.244.194.198",,,,,"Helsinki","Uusimaa","FI","00100","60.1695,24.9354","Europe/Helsinki","AS58065 Orion Network Limited"
"112.222.0.29",,,,,"Seoul","Seoul","KR","03141","37.5660,126.9784","Asia/Seoul","AS3786 LG DACOM Corporation"
"162.58.247.55",,,,,"Oklahoma City","Oklahoma","US","73102","35.4676,-97.5164","America/Chicago","AS3923 Federal Aviation Administration"
"30.92.249.132",,,,,"Independence","Kansas","US","67301","37.2242,-95.7083","America/Chicago","AS749 DoD Network Information Center"
"167.164.55.0",,,,,"Pittsburgh","Pennsylvania","US","15222","40.4477,-79.9933","America/New_York",
"147.227.81.224",,,,,"Sierra Vista","Arizona","US","85613","31.5587,-110.3441","America/Phoenix","AS668 DoD Network Information Center"
"49.172.82.247",,,,,"Gwangju","Gwangju","KR","61240","35.1547,126.9156","Asia/Seoul","AS17858 LG POWERCOMM"
"32.71.250.58",,,,,"Middletown","New Jersey","US","07748","40.3943,-74.1171","America/New_York","AS7018 AT&T Services, Inc."
"59.127.135.25",,,"59-127-135-25.hinet-ip.hinet.net",,"Kaohsiung","Takao","TW",,"22.6163,120.3133","Asia/Taipei","AS3462 Data Communication Business Group"
"203.197.235.35",,,"delhi-203.197.235-35.vsnl.net.in",,"New Delhi","Delhi","IN","110001","28.6214,77.2148","Asia/Kolkata","AS4755 TATA Communications formerly VSNL is Leading ISP"
"90.111.245.138",,,,,"Paris","Île-de-France","FR","75008","48.8648,2.3335","Europe/Paris",
"56.89.80.133",,,,,"Seattle","Washington","US","98108","47.5413,-122.3129","America/Los_Angeles","AS16509 Amazon.com, Inc."
"195.237.152.198",,,,,"Porvoo","Uusimaa","FI","06100","60.3923,25.6651","Europe/Helsinki","AS719 Elisa Oyj"
"25.188.196.47",,,,,"London","England","GB","E1W","51.5085,-0.1257","Europe/London",
"206.84.69.39",,,,,"Washington","District of Columbia","US","20004","38.8951,-77.0364","America/New_York","AS174 Cogent Communications"
"146.47.189.38",,,,,"Racine","Wisconsin","US","53404","42.7433,-87.8053","America/Chicago",
"39.163.103.27",,,,,"Shanghai","Shanghai","CN","200000","31.2222,121.4581","Asia/Shanghai","AS24445 Henan Mobile Communications Co.,Ltd"
"162.151.179.167",,,,,"Sterling","Virginia","US","20163","39.0062,-77.4286","America/New_York","AS7922 Comcast Cable Communications, LLC"
"144.91.150.133",,,"133.150.91.144.lan-do.ne.jp",,"Asahikawa","Hokkaido","JP","070-0021","43.7706,142.3649","Asia/Tokyo","AS131952 Asahikawa Cable Television Co., Ltd."
"221.206.44.63",,,,,"Ningbo","Zhejiang","CN","315000","29.8782,121.5494","Asia/Shanghai","AS4837 CHINA UNICOM China169 Backbone"
"48.89.167.189",,,,,"Newark","New Jersey","US","07102","40.7357,-74.1724","America/New_York",
"52.169.116.164",,,,,"Dublin","Leinster","IE","D02","53.3331,-6.2489","Europe/Dublin","AS8075 Microsoft Corporation"
"166.79.195.157",,,,,"Seoul","Seoul","KR","03141","37.5660,126.9784","Asia/Seoul",
"219.31.152.129",,,"softbank219031152129.bbtec.net",,"Ebara","Tokyo","JP","105-0022","35.6500,139.7333","Asia/Tokyo","AS17676 SoftBank Corp."
"154.48.233.165",,,,,"Frankfurt am Main","Hesse","DE","60326","50.1025,8.6299","Europe/Berlin","AS137443 ChangLian Network Technology Co., Limited"
"189.248.139.91",,,"dsl-189-248-139-91-dyn.prod-infinitum.com.mx",,"Heroica Guaymas","Sonora","MX","85480","27.9193,-110.8975","America/Hermosillo","AS8151 UNINET"
"80.247.6.83",,,"ows-80-247-6-83.eu-west-2.compute.outscale.com",,"Paris","Île-de-France","FR","75000","48.8534,2.3488","Europe/Paris","AS50624 Outscale SASU"
"68.254.244.208",,,"adsl-68-254-244-208.dsl.sfldmi.ameritech.net",,"Fresno","California","US","93737","36.7477,-119.7724","America/Los_Angeles","AS7018 AT&T Services, Inc."
"197.23.128.119",,,,,"Tunis","Tunis Governorate","TN",,"36.8190,10.1658","Africa/Tunis","AS37693 OOREDOO TUNISIE SA"
"110.243.14.36",,,,,"Ningbo","Zhejiang","CN","315000","29.8782,121.5494","Asia/Shanghai","AS4837 CHINA UNICOM China169 Backbone"
"218.54.207.160",,,,,"Seoul","Seoul","KR","03141","37.5660,126.9784","Asia/Seoul","AS9318 SK Broadband Co Ltd"
"157.47.114.20",,,,,"Hyderābād","Telangana","IN","500001","17.3840,78.4564","Asia/Kolkata","AS55836 Reliance Jio Infocomm Limited"
"73.54.203.165",,,"c-73-54-203-165.hsd1.ga.comcast.net",,"Atlanta","Georgia","US","30302","33.7490,-84.3880","America/New_York","AS7922 Comcast Cable Communications, LLC"
"38.166.40.246",,,,,"Maracaibo","Zulia","VE",,"10.6666,-71.6124","America/Caracas","AS61461 Airtek Solutions C.A."
"221.23.158.87",,,"softbank221023158087.bbtec.net",,"Ebara","Tokyo","JP","105-0022","35.6500,139.7333","Asia/Tokyo","AS17676 SoftBank Corp."
"5.252.94.135",,,,,"Archena","Murcia","ES","30600","38.1163,-1.3004","Europe/Madrid","AS209910 DITT REDMOVIL SL"
"24.129.74.189",,,"c-24-129-74-189.hsd1.fl.comcast.net",,"Jacksonville","Florida","US","32202","30.3322,-81.6556","America/New_York","AS7922 Comcast Cable Communications, LLC"
"160.160.113.117",,,,,"Casablanca","Casablanca-Settat","MA","29640","33.5883,-7.6114","Africa/Casablanca","AS6713 Office National des Postes et Telecommunications ONPT (Maroc Telecom) / IAM"
"56.116.189.0",,,,,"Seattle","Washington","US","98108","47.5413,-122.3129","America/Los_Angeles","AS16509 Amazon.com, Inc."
"190.164.160.79",,,"pc-79-160-164-190.cm.vtr.net",,"Santiago","Santiago Metropolitan","CL","8320000","-33.4569,-70.6483","America/Santiago","AS22047 VTR BANDA ANCHA S.A."
"19.111.192.175",,,,,"Dearborn","Michigan","US","48121","42.2399,-83.1508","America/Detroit",
"140.94.123.72",,,,,"Pantin","Île-de-France","FR","93500","48.8944,2.4093","Europe/Paris","AS206720 AIRBUS SAS"
"199.6.127.153",,,,,"El Segundo","California","US","90245","33.9192,-118.4165","America/Los_Angeles","AS3300 British Telecommunications PLC"
"165.35.58.173",,,,,"Charlotte","North Carolina","US","28255","35.2600,-80.8042","America/New_York",
"136.105.231.135",,,,,"Mountain View","California","US","94043","37.4056,-122.0775","America/Los_Angeles",
"166.41.54.117",,,,,"Reston","Virginia","US","20191","38.9318,-77.3527","America/New_York","AS3372 Verizon Business"
"23.255.214.209",,,"23-255-214-209.mci.googlefiber.net",,"Kansas City","Missouri","US","64106","39.0997,-94.5786","America/Chicago","AS16591 Google Fiber Inc."
"185.23.87.107",,,"ip-107.87.23.185.axera.it",,"Montecchio Maggiore-Alte Ceccato","Veneto","IT","36075","45.5037,11.4120","Europe/Rome","AS34758 Axera SpA"
"141.201.46.191",,,,,"Seekirchen am Wallersee","Salzburg","AT","5201","47.9000,13.1333","Europe/Vienna","AS1109 Universitaet Salzburg"
"55.139.104.163",,,,,"Columbus","Ohio","US","43209","39.9539,-82.9301","America/New_York","AS721 DoD Network Information Center"
"190.251.45.32",,,"static-adsl190-251-45-32.une.net.co",,"Cali","Valle del Cauca Department","CO","760001","3.4372,-76.5225","America/Bogota","AS13489 UNE EPM TELECOMUNICACIONES S.A."
"154.138.163.229",,,,,"Cairo","Cairo","EG",,"30.0626,31.2497","Africa/Cairo","AS37069 The Egyptian Company for Mobile Services (Mobinil)"
"214.67.148.245",,,,,"Columbus","Ohio","US","43218","39.9690,-83.0114","America/New_York","AS721 DoD Network Information Center"
"188.225.207.71",,,,,"Hebron","West Bank","PS",,"31.5294,35.0938","Asia/Hebron","AS12754 Coolnet New Communication Provider"
"35.73.67.98",,,"ec2-35-73-67-98.ap-northeast-1.compute.amazonaws.com",,"Tokyo","Tokyo","JP","101-8656","35.6895,139.6917","Asia/Tokyo","AS16509 Amazon.com, Inc."
"142.184.68.230",,,,,"Montréal","Quebec","CA","H3H","45.5088,-73.5878","America/Toronto","AS577 Bell Canada"
"122.94.26.104",,,,,"Nanjing","Jiangsu","CN","210000","32.0617,118.7778","Asia/Shanghai","AS56046 China Mobile communications corporation"
"89.237.88.251",,,,,"Petaẖ Tiqva","Central District","IL",,"32.0871,34.8875","Asia/Jerusalem","AS12849 Hot-Net internet services Ltd."
"54.252.249.33",,,"ec2-54-252-249-33.ap-southeast-2.compute.amazonaws.com",,"Sydney","New South Wales","AU","1001","-33.8678,151.2073","Australia/Sydney","AS16509 Amazon.com, Inc."
"151.247.130.190",,,"151-247-130-190.shatel.ir",,"Shiraz","Fars","IR",,"29.6103,52.5311","Asia/Tehran","AS58224 Iran Telecommunication Company PJS"
"141.241.241.128",,,,,"Norbiton","England","GB","KT2","51.4119,-0.2842","Europe/London","AS786 Jisc Services Limited"
"187.52.200.18",,,"187-52-200-18.ctame700.ipd.brasiltelecom.net.br",,"Curitiba","Paraná","BR","80000-000","-25.4278,-49.2731","America/Sao_Paulo","AS8167 V tal"
"87.50.72.69",,,"xe-7-0-1-11.hvinqe10.dk.ip.tdc.net",,"Copenhagen","Capital Region","DK","1072","55.6759,12.5655","Europe/Copenhagen","AS3292 TDC Holding A/S"
"163.58.140.206",,,"h163-058-140-206.catv02.itscom.jp",,"Yokohama","Kanagawa","JP","220-8588","35.4333,139.6500","Asia/Tokyo","AS9365 its communications Inc."
"100.198.165.4",,,,,"Bellevue","Washington","US","98006","47.5614,-122.1552","America/Los_Angeles","AS21928 T-Mobile USA, Inc."
"45.246.89.225",,,,,"Al Marāghah","Sohag","EG",,"26.6998,31.6046","Africa/Cairo","AS24863 Link Egypt (Link.NET)"
"84.237.126.96",,,,,"Novosibirsk","Novosibirsk Oblast","RU","630000","55.0415,82.9346","Asia/Novosibirsk",
"40.10.25.102",,,,,"Indianapolis","Indiana","US","46285","39.7795,-86.1328","America/Indiana/Indianapolis","AS4249 Eli Lilly and Company"
"3.77.114.6",,,"ec2-3-77-114-6.eu-central-1.compute.amazonaws.com",,"Frankfurt am Main","Hesse","DE","60306","50.1155,8.6842","Europe/Berlin","AS16509 Amazon.com, Inc."
"34.86.220.205",,,"205.220.86.34.bc.googleusercontent.com",,"Washington","District of Columbia","US","20004","38.8951,-77.0364","America/New_York","AS396982 Google LLC"
"64.15.0.66",,,"rtr4-tg10-1.wan.prnynj.cv.net",,"Parsippany","New Jersey","US","07054","40.8579,-74.4260","America/New_York",
"94.227.164.192",,,"94-227-164-192.access.telenet.be",,"Antwerpen","Flanders","BE","2000","51.2205,4.4003","Europe/Brussels","AS6848 Telenet BV"
"148.112.151.27",,,,,"Stamford","Connecticut","US","06901","41.0534,-73.5387","America/New_York",
"56.67.227.142",,,,,"Seattle","Washington","US","98108","47.5413,-122.3129","America/Los_Angeles","AS16509 Amazon.com, Inc."
"170.54.231.239",,,,,"Johnston","Iowa","US","50131","41.6730,-93.6977","America/Chicago",
"51.196.87.214",,,,,"Burlington","Colorado","US","80807","39.3061,-102.2694","America/Denver","AS16509 Amazon.com, Inc."
"16.128.130.153",,,,,"Seattle","Washington","US","98108","47.5413,-122.3129","America/Los_Angeles","AS16509 Amazon.com, Inc."
"83.182.211.68",,,"m83-182-211-68.cust.tele2.se",,"Kista","Stockholm","SE","164 40","59.4032,17.9448","Europe/Stockholm","AS1257 Tele2 Sverige AB"
"142.148.226.178",,,,,"Dallas","Texas","US","75201","32.7831,-96.8067","America/Chicago",
"17.87.7.140",,,,,"Beijing","Beijing","CN","100000","39.9075,116.3972","Asia/Shanghai","AS714 Apple Inc."
"96.24.89.146",,,,,"Bellevue","Washington","US","98006","47.5614,-122.1552","America/Los_Angeles",
"219.96.187.255",,,,,"Tokyo","Tokyo","JP","101-8656","35.6895,139.6917","Asia/Tokyo","AS4713 NTT Communications Corporation"
"145.76.10.8",,,,,"Enschede","Overijssel","NL","7511","52.2183,6.8958","Europe/Amsterdam","AS1103 SURF B.V."
"167.67.137.223",,,"syn-167-067-137-223.res.spectrum.com",,"Stanton","California","US","90680","33.8025,-117.9931","America/Los_Angeles",
"104.165.213.58",,,,,"Santa Clara","California","US","95050","37.3541,-121.9552","America/Los_Angeles","AS18779 EGIHosting"
"182.84.41.229",,,,,"Shanghai","Shanghai","CN","200000","31.2222,121.4581","Asia/Shanghai","AS4134 CHINANET-BACKBONE"
"35.246.53.10",,,"10.53.246.35.bc.googleusercontent.com",,"London","England","GB","E1W","51.5085,-0.1257","Europe/London","AS396982 Google LLC"
"115.30.82.168",,,,,"Taipei","Taiwan","TW",,"25.0531,121.5264","Asia/Taipei",
"201.95.180.152",,,"201-95-180-152.dsl.telesp.net.br",,"São Paulo","São Paulo","BR","01000-000","-23.5475,-46.6361","America/Sao_Paulo","AS27699 TELEFÔNICA BRASIL S.A"
"40.244.94.218",,,,,"Indianapolis","Indiana","US","46225","39.7406,-86.1569","America/Indiana/Indianapolis",
"113.21.93.28",,,"28-93-21-113-static.chief.net.tw",,"Taipei","Taiwan","TW",,"25.0531,121.5264","Asia/Taipei",
"191.25.177.160",,,"191-25-177-160.user.vivozap.com.br",,"São Paulo","São Paulo","BR","01000-000","-23.5475,-46.6361","America/Sao_Paulo","AS26599 TELEFÔNICA BRASIL S.A"
"13.30.106.126",,,,,"Seattle","Washington","US","98109","47.6339,-122.3476","America/Los_Angeles","AS16509 Amazon.com, Inc."
"78.69.172.205",,,"78-69-172-205-no80.tbcn.telia.com",,"Östersund","Jämtland","SE","831 00","63.1792,14.6357","Europe/Stockholm","AS3301 Telia Company AB"
"16.94.155.46",,,,,"Seattle","Washington","US","98108","47.5413,-122.3129","America/Los_Angeles","AS16509 Amazon.com, Inc."
"11.167.243.171",,,,,"Independence","Kansas","US","67301","37.2242,-95.7083","America/Chicago","AS749 DoD Network Information Center"
"4.101.189.38",,,,,"Monroe","Louisiana","US","71203","32.5530,-92.0422","America/Chicago","AS3356 Level 3 Parent, LLC"
"99.205.173.118",,,,,"Seattle","Washington","US","98108","47.5413,-122.3129","America/Los_Angeles",
"147.125.143.41",,,,,"Laxenburg","Lower Austria","AT","2351","48.0683,16.3561","Europe/Vienna","AS2488 International Institute for Applied Systems Analysis"
"37.227.215.145",,,,,"Rho","Lombardy","IT","20017","45.5324,9.0402","Europe/Rome","AS24608 WIND TRE S.P.A."
"13.188.62.74",,,,,"Columbus","Ohio","US","43215","39.9612,-82.9988","America/New_York","AS16509 Amazon.com, Inc."
"11.188.75.155",,,,,"Independence","Kansas","US","67301","37.2242,-95.7083","America/Chicago","AS749 DoD Network Information Center"
"119.105.89.125",,,"m119105089125.v4.enabler.ne.jp",,"Tokyo","Tokyo","JP","101-8656","35.6895,139.6917","Asia/Tokyo","AS2516 KDDI CORPORATION"
"156.96.135.18",,,,,"New York City","New York","US","10001","40.7143,-74.0060","America/New_York",
"193.221.15.59",,,,,"Evere","Brussels Capital","BE","1130","50.8956,4.4170","Europe/Brussels",
"160.212.125.105",,,,,"Cranberry Township","Pennsylvania","US","16066","40.6850,-80.1071","America/New_York","AS13333 Consolidated Communications, Inc."
"41.110.46.150",,,,,"Algiers","Algiers","DZ","16006","36.7323,3.0875","Africa/Algiers","AS36947 Telecom Algeria"
"197.52.3.107",,,"host-197.52.3.107.tedata.net",,"Cairo","Cairo","EG",,"30.0626,31.2497","Africa/Cairo","AS8452 TE-AS"
"49.174.157.140",,,,,"Seoul","Seoul","KR","03141","37.5660,126.9784","Asia/Seoul","AS17858 LG POWERCOMM"
"66.255.7.16",,,"uslec-66-255-7-16.cust.uslec.net",,"Gaithersburg","Maryland","US","20878","39.1125,-77.2515","America/New_York","AS7029 Windstream Communications LLC"
"43.98.242.106",,,,,"Singapore","Singapore","SG","018989","1.2897,103.8501","Asia/Singapore",
"187.223.139.194",,,"dsl-187-223-139-194-dyn.prod-infinitum.com.mx",,"Cassoday","Kansas","US","66842","38.0389,-96.6392","America/Chicago","AS8151 UNINET"
"44.67.137.125",,,,,"San Diego","California","US","92101","32.7157,-117.1647","America/Los_Angeles","AS7377 University of California, San Diego"
"7.28.148.225",,,,,"Columbus","Ohio","US","43218","39.9690,-83.0114","America/New_York","AS749 DoD Network Information Center"
"6.204.110.7",,,,,"Yuma","Arizona","US","85369","32.7253,-114.6244","America/Phoenix","AS749 DoD Network Information Center"
"49.31.186.82",,,,,"Jeonju","Jeollabuk-do","KR","54992","35.8219,127.1489","Asia/Seoul","AS4766 Korea Telecom"
"189.168.172.41",,,"dsl-189-168-172-41-dyn.prod-infinitum.com.mx",,"Guadalajara","Jalisco","MX","59058","20.6668,-103.3918","America/Mexico_City","AS8151 UNINET"
"80.155.14.197",,,,,"Koblenz","Rheinland-Pfalz","DE","56073","50.3536,7.5788","Europe/Berlin","AS3320 Deutsche Telekom AG"
"10.223.224.50",,true,,,,,,,,,
"213.207.62.176",,,,,"Tirana","Tirana","AL","1700","41.3275,19.8189","Europe/Tirane","AS39611 TIBO COMMUNICATIONS SH.P.K"
"106.244.1.47",,,,,"Seoul","Seoul","KR","03141","37.5660,126.9784","Asia/Seoul","AS3786 LG DACOM Corporation"
"41.82.55.163",,,,,"Dakar","Dakar","SN",,"14.6937,-17.4441","Africa/Dakar","AS8346 SONATEL-AS Autonomous System"
"47.167.178.158",,,,,"Rochester","New York","US","14608","43.1521,-77.6258","America/New_York","AS5650 Frontier Communications of America, Inc."
"92.180.81.50",,,,,"Ploieşti","Prahova","RO","100001","44.9500,26.0167","Europe/Bucharest","AS8953 Orange Romania S.A."
"69.160.14.157",,,,,"Yangon","Yangon","MM",,"16.8053,96.1561","Asia/Yangon","AS132167 OOREDOO MYANMAR"
"190.92.63.219",,,"190-92-63-219.reverse.cablecolor.hn",,"Jalapa","Jalapa","GT","21001","14.6347,-89.9889","America/Guatemala","AS27884 CABLECOLOR S.A."
"82.115.199.37",,,"visitor199-37.birdielan.se",,"Uppsala","Uppsala","SE","756 50","59.8585,17.6454","Europe/Stockholm","AS13308 Peter Olsson"
"214.125.131.88",,,,,"Columbus","Ohio","US","43218","39.9690,-83.0114","America/New_York","AS749 DoD Network Information Center"
"113.137.153.101",,,,,"Shanghai","Shanghai","CN","200000","31.2222,121.4581","Asia/Shanghai","AS4134 CHINANET-BACKBONE"
"5.50.152.168",,,"5-50-152-168.abo.bbox.fr",,"Orvilliers","Île-de-France","FR","78910","48.8600,1.6476","Europe/Paris","AS5410 Bouygues Telecom SA"
"101.120.142.50",,,,,"Beijing","Beijing","CN","100000","39.9075,116.3972","Asia/Shanghai",
"105.87.212.115",,,"host-105.87.212.115.etisalat.com.eg",,"Cairo","Cairo","EG",,"30.0626,31.2497","Africa/Cairo","AS36992 ETISALAT MISR"
"184.57.159.204",,,"syn-184-057-159-204.res.spectrum.com",,"Lima","Ohio","US","45805","40.7399,-84.1459","America/New_York","AS10796 Charter Communications Inc"
"184.185.209.72",,,"wsip-184-185-209-72.ks.ks.cox.net",,"Wichita","Kansas","US","67201","37.6922,-97.3375","America/Chicago","AS22773 Cox Communications Inc."
"167.95.191.52",,,,,"Tallahassee","Florida","US","32399","30.4383,-84.2807","America/New_York","AS8103 Florida Department of Management Services - Division of Telecommunications"
"184.4.253.143",,,"fl-184-4-253-143.dhcp.embarqhsd.net",,"Monroe","Louisiana","US","71201","32.5286,-92.1061","America/Chicago","AS209 CenturyLink Communications, LLC"
"170.99.15.217",,,,,"Annapolis","Maryland","US","21404","38.9786,-76.4918","America/New_York","AS398130 Maryland Administrative Office of the Courts (AOC)"
"77.92.193.22",,,"cust-77-92-193-22.inext.cz",,"Zlín","Zlín","CZ","760 01","49.2264,17.6706","Europe/Prague","AS25424 InterneXt 2000, s.r.o."
"53.131.194.183",,,,,"Sindelfingen","Baden-Wurttemberg","DE","71065","48.7000,9.0167","Europe/Berlin","AS31399 Mercedes-Benz Group AG"
"3.200.166.167",,,,,"Virginia Beach","Virginia","US","23451","36.8585,-76.0019","America/New_York","AS16509 Amazon.com, Inc."
"63.191.171.41",,,,,"Frankfurt am Main","Hesse","DE","60306","50.1155,8.6842","Europe/Berlin","AS16509 Amazon.com, Inc."
"211.45.75.44",,,,,"Seoul","Seoul","KR","03141","37.5660,126.9784","Asia/Seoul","AS9457 DREAMLINE CO."
"160.65.101.37",,,,,"Oklahoma City","Oklahoma","US","73102","35.4676,-97.5164","America/Chicago",
"135.73.131.111",,,"nothing.attdns.com",,"Indianapolis","Indiana","US","46204","39.7684,-86.1580","America/Indiana/Indianapolis",
"19.228.76.177",,,,,"Dearborn","Michigan","US","48121","42.2399,-83.1508","America/Detroit",
"38.164.132.63",,,,,"Washington","District of Columbia","US","20037","38.9014,-77.0504","America/New_York","AS174 Cogent Communications"
"57.141.198.111",,,,,"Dublin","Leinster","IE","D02","53.3331,-6.2489","Europe/Dublin",
"189.183.50.147",,,"dsl-189-183-50-147-dyn.prod-infinitum.com.mx",,"Puebla","Puebla","MX","72270","19.0379,-98.2035","America/Mexico_City","AS8151 UNINET"
"110.247.153.70",,,,,"Shijiazhuang","Hebei","CN","050000","38.0414,114.4786","Asia/Shanghai","AS4837 CHINA UNICOM China169 Backbone"
"219.219.117.136",,,,,"Shanghai","Shanghai","CN","200000","31.2222,121.4581","Asia/Shanghai","AS4538 China Education and Research Network Center"
"136.162.111.135",,,,,"Chippewa Falls","Wisconsin","US","54729","44.9369,-91.3929","America/Chicago",
"52.50.209.49",,,"ec2-52-50-209-49.eu-west-1.compute.amazonaws.com",,"Dublin","Leinster","IE","D02","53.3331,-6.2489","Europe/Dublin","AS16509 Amazon.com, Inc."
"73.156.208.26",,,"c-73-156-208-26.hsd1.fl.comcast.net",,"Cape Coral","Florida","US","33910","26.5629,-81.9495","America/New_York","AS7922 Comcast Cable Communications, LLC"
"119.43.28.203",,,,,"Gurugram","Haryana","IN","122002","28.4180,76.9839","Asia/Kolkata",
"217.82.46.37",,,"pd9522e25.dip0.t-ipconnect.de",,"Düren","North Rhine-Westphalia","DE","52351","50.8043,6.4930","Europe/Berlin","AS3320 Deutsche Telekom AG"
"210.228.226.64",,,,,"Tokyo","Tokyo","JP","101-8656","35.6895,139.6917","Asia/Tokyo","AS4725 SoftBank Corp."
"221.105.243.251",,,"softbank221105243251.bbtec.net",,"Saitama","Saitama","JP","330-0046","35.9081,139.6566","Asia/Tokyo","AS17676 SoftBank Corp."
"175.210.47.87",,,,,"Incheon","Incheon","KR","21505","37.4565,126.7052","Asia/Seoul","AS4766 Korea Telecom"
"39.129.125.110",,,,,"Shanghai","Shanghai","CN","200000","31.2222,121.4581","Asia/Shanghai","AS9808 China Mobile Communications Group Co., Ltd."
"19.20.13.234",,,,,"Dearborn","Michigan","US","48121","42.2399,-83.1508","America/Detroit",
"96.162.11.85",,,,,"Mount Laurel","New Jersey","US","08054","39.9340,-74.8910","America/New_York","AS7922 Comcast Cable Communications, LLC"
"156.134.123.253",,,,,"Atlanta","Georgia","US","30302","33.7490,-84.3880","America/New_York","AS12217 UNITED PARCEL SERVICE"
"137.33.78.168",,,,,"Helsinki","Uusimaa","FI","00100","60.1695,24.9354","Europe/Helsinki",
"15.176.70.194",,,,,"Ashburn","Virginia","US","20147","39.0437,-77.4875","America/New_York","AS22562 DXC US Latin America Corporation"
"79.47.176.19",,,"host-79-47-176-19.retail.telecomitalia.it",,"Rome","Lazio","IT","00118","41.8919,12.5113","Europe/Rome","AS3269 Telecom Italia S.p.A."
"146.53.16.47",,,,,"Sierra Vista","Arizona","US","85613","31.5587,-110.3441","America/Phoenix","AS367 DoD Network Information Center"
"193.190.29.63",,,,,"Diepenbeek","Flanders","BE","3590","50.9077,5.4188","Europe/Brussels","AS2611 BELNET"
"218.83.2.94",,,,,"Shanghai","Shanghai","CN","200000","31.2222,121.4581","Asia/Shanghai","AS4812 China Telecom (Group)"
"116.43.88.219",,,,,"Seoul","Seoul","KR","03141","37.5660,126.9784","Asia/Seoul","AS17858 LG POWERCOMM"
"156.187.182.236",,,"host-156.187.182.236.etisalat.com.eg",,"Cairo","Cairo","EG",,"30.0626,31.2497","Africa/Cairo","AS36992 ETISALAT MISR"
"48.31.196.24",,,,,"Newark","New Jersey","US","07102","40.7357,-74.1724","America/New_York",
"142.160.124.244",,,"stnbmb0127w-ds01-160-124-244.dynamic.bellmts.net",,"Steinbach","Manitoba","CA","R5G","49.5258,-96.6845","America/Winnipeg","AS7122 Bell Canada"
"31.75.105.19",,,,,"Ipswich","England","GB","IP1","52.0592,1.1555","Europe/London",
"179.132.235.182",,,"179-132-235-182.user.vivozap.com.br",,"Votorantim","São Paulo","BR","18110-000","-23.5467,-47.4378","America/Sao_Paulo","AS26599 TELEFÔNICA BRASIL S.A"
"88.55.149.101",,,"host-88-55-149-101.business.telecomitalia.it",,"Nuvolera","Lombardy","IT","25080","45.5322,10.3692","Europe/Rome","AS3269 Telecom Italia S.p.A."
"107.248.120.12",,,"mobile-107-248-120-12.mycingular.net",,"Redmond","Washington","US","98052","47.6740,-122.1215","America/Los_Angeles",
"11.3.59.231",,,,,"Independence","Kansas","US","67301","37.2242,-95.7083","America/Chicago","AS749 DoD Network Information Center"
"120.16.186.17",,,,,"Perth","Western Australia","AU","6000","-31.9522,115.8614","Australia/Perth","AS133612 Vodafone Australia Pty Ltd"
"115.241.186.164",,,,,"Baddi","Himachal Pradesh","IN","173205","30.9578,76.7914","Asia/Kolkata","AS55836 Reliance Jio Infocomm Limited"
"214.32.109.197",,,,,"Columbus","Ohio","US","43218","39.9690,-83.0114","America/New_York","AS721 DoD Network Information Center"
"204.120.80.105",,,,,"Herndon","Virginia","US","20170","38.9839,-77.3675","America/New_York","AS174 Cogent Communications"
"138.220.61.84",,,,,"Washington","District of Columbia","US","20004","38.8951,-77.0364","America/New_York","AS10497 IBRD"
"42.3.3.101",,,"42-3-3-101.ptr.netvigator.com",,"Hong Kong","Hong Kong","HK","999077","22.2783,114.1747","Asia/Hong_Kong","AS4760 HKT Limited"
"148.42.122.1",,,,,"Columbus","Ohio","US","43218","39.9690,-83.0114","America/New_York","AS749 DoD Network Information Center"
"136.250.159.93",,,"host.slb.com",,"Houston","Texas","US","77056","29.7446,-95.4683","America/Chicago","AS72 Schlumberger Limited"
"136.172.149.77",,,,,"Berlin","Berlin","DE","10119","52.5244,13.4105","Europe/Berlin","AS680 Verein zur Foerderung eines Deutschen Forschungsnetzes e.V."
"80.90.35.146",,,"vodsl-914.vo.lu",,"Luxembourg","Luxembourg","LU","L-1114","49.6117,6.1300","Europe/Luxembourg","AS9008 Visual Online S.A."
"80.75.92.66",,,,,"Yekaterinburg","Sverdlovsk Oblast","RU","620000","56.8519,60.6122","Asia/Yekaterinburg","AS34552 PJSC MegaFon"
"159.37.30.154",,,,,"San Francisco","California","US","94104","37.7915,-122.4018","America/Los_Angeles",
"188.77.83.72",,,"72.83.77.188.dynamic.jazztel.es",,"Badalona","Catalonia","ES","08910","41.4500,2.2474","Europe/Madrid","AS12479 Orange Espagne SA"
"147.94.242.35",,,"eduroam-1-242-35.univ-amu.fr",,"Arles","Provence-Alpes-Côte d'Azur","FR","13104","43.6768,4.6303","Europe/Paris","AS2457 Renater"
"97.106.5.76",,,"syn-097-106-005-076.res.spectrum.com",,"Tampa","Florida","US","33617","28.0384,-82.3949","America/New_York","AS33363 Charter Communications, Inc"
"3.102.127.165",,,,,"Auckland","Auckland","NZ","1010","-36.8485,174.7635","Pacific/Auckland","AS16509 Amazon.com, Inc."
"1.98.25.114",,,,,"Seoul","Seoul","KR","03141","37.5660,126.9784","Asia/Seoul","AS4766 Korea Telecom"
"203.174.215.229",,,"kc203-174-215-229.ccnw.ne.jp",,"Inuyama","Aichi","JP","484-0081","35.3800,136.9429","Asia/Tokyo","AS17698 COMMUNITY NETWORK CENTER INCORPORATED."
"116.106.207.139",,,"dynamic-ip-adsl.viettel.vn",,"Ho Chi Minh City","Ho Chi Minh","VN","71606","10.8230,106.6296","Asia/Ho_Chi_Minh","AS24086 Viettel Corporation"
"168.55.199.214",,,,,"Austin","Texas","US","78701","30.2672,-97.7431","America/Chicago","AS1761 General Services Commission"
"130.29.230.16",,,,,"Santa Clara","California","US","95051","37.3483,-121.9844","America/Los_Angeles",
"199.59.68.207",,,,,"Houston","Texas","US","77002","29.7633,-95.3633","America/Chicago","AS21534 BroadSoft, Inc."
"186.57.149.225",,,"186-57-149-225.speedy.com.ar",,"Quilmes","Buenos Aires","AR","1878","-34.7206,-58.2545","America/Argentina/Buenos_Aires","AS22927 Telefonica de Argentina"
"100.128.70.210",,,,,"Bellevue","Washington","US","98006","47.5614,-122.1552","America/Los_Angeles","AS21928 T-Mobile USA, Inc."
"93.160.83.196",,,"93-160-83-196-static.dk.customer.tdc.net",,"Århus","Central Jutland","DK","8000","56.1567,10.2108","Europe/Copenhagen","AS3292 TDC Holding A/S"
"36.77.94.252",,,,,"Jambi City","Jambi","ID",,"-1.6000,103.6167","Asia/Jakarta","AS7713 PT Telekomunikasi Indonesia"
"51.250.46.149",,,,,"Moscow","Moscow","RU","101000","55.7522,37.6156","Europe/Moscow","AS200350 Yandex.Cloud LLC"
"81.67.222.238",,,"238.222.67.81.rev.sfr.net",,"Bondy","Île-de-France","FR","93140","48.9018,2.4893","Europe/Paris","AS15557 Societe Francaise Du Radiotelephone - SFR SA"
"58.1.27.124",,,,,"Asagaya-minami","Tokyo","JP","166-0000","35.7021,139.6375","Asia/Tokyo","AS2510 FUJITSU LIMITED"
"58.190.9.136",,,"58-190-9-136f1.osk3.eonet.ne.jp",,"Takarazuka","Hyōgo","JP","665-0021","34.7994,135.3570","Asia/Tokyo","AS17511 OPTAGE Inc."
"40.45.69.120",,,,,"Seattle","Washington","US","98108","47.5413,-122.3129","America/Los_Angeles","AS16509 Amazon.com, Inc."
"23.163.145.195",,,,,"Roselle","Illinois","US","60172","41.9847,-88.0798","America/Chicago",
"144.228.168.6",,,,,"Herndon","Virginia","US","20170","38.9839,-77.3675","America/New_York","AS174 Cogent Communications"
"85.191.79.161",,,,,"Århus","Central Jutland","DK","8000","56.1567,10.2108","Europe/Copenhagen","AS204274 AURA Fiber A/S"
"5.74.9.122",,,,,"Shiraz","Fars","IR",,"29.6103,52.5311","Asia/Tehran","AS58224 Iran Telecommunication Company PJS"
"177.172.184.163",,,"177-172-184-163.user.vivozap.com.br",,"Vinhedo","São Paulo","BR","13280-000","-23.0297,-46.9753","America/Sao_Paulo","AS26599 TELEFÔNICA BRASIL S.A"
"115.96.94.156",,,"94.96.115.156.hathway.com",,"Surat","Gujarat","IN","395005","21.1959,72.8302","Asia/Kolkata","AS17488 Hathway IP Over Cable Internet"
"4.134.78.167",,,,,"Redmond","Washington","US","98052","47.6740,-122.1215","America/Los_Angeles",
"181.223.246.123",,,"b5dff67b.virtua.com.br",,"Resende","Rio de Janeiro","BR","27500-000","-22.4689,-44.4467","America/Sao_Paulo","AS28573 Claro NXT Telecomunicacoes Ltda"
"148.181.195.227",,,,,"London","England","GB","E1W","51.5085,-0.1257","Europe/London",
"91.103.147.166",,,"host-91-103-147-166.fiberway.pl",,"Niepołomice","Lesser Poland","PL","32-005","50.0407,20.2226","Europe/Warsaw","AS51399 Fiberway Sp. z o.o."
"27.93.195.98",,,"kd027093195098.ppp-bb.dion.ne.jp",,"Hiroshima","Hiroshima","JP","730-0011","34.4000,132.4500","Asia/Tokyo","AS2516 KDDI CORPORATION"
"80.58.55.129",,,"129.red-80-58-55.staticip.rima-tde.net",,"Alcobendas","Madrid","ES","28100","40.5475,-3.6420","Europe/Madrid","AS3352 TELEFONICA DE ESPANA S.A.U."
"21.122.39.207",,,,,"Columbus","Ohio","US","43218","39.9690,-83.0114","America/New_York","AS749 DoD Network Information Center"
"209.214.250.164",,,,,"Dallas","Texas","US","75202","32.7781,-96.8054","America/Chicago","AS7018 AT&T Services, Inc."
"114.115.12.20",,,,,"Shanghai","Shanghai","CN","200000","31.2222,121.4581","Asia/Shanghai","AS23724 IDC, China Telecommunications Corporation"
"89.18.54.235",,,,,"Zaprešić","Zagreb County","HR","10290","45.8564,15.8078","Europe/Zagreb","AS41454 Optika Kabel TV d.o.o."
"206.168.209.111",,,"206-168-209-111.brescobroadband.com",,"Columbus","Ohio","US","43215","39.9612,-82.9988","America/New_York","AS32899 Bresco Broadband"
"45.124.239.44",,,,,"Mumbai","Maharashtra","IN","400004","18.9500,72.8167","Asia/Kolkata",
"26.113.209.69",,,,,"Columbus","Ohio","US","43218","39.9690,-83.0114","America/New_York","AS749 DoD Network Information Center"
"129.108.48.116",,,,,"El Paso","Texas","US","79901","31.7587,-106.4869","America/Denver","AS16461 The University of Texas at El Paso"
"165.143.173.165",,,,,"Pretoria","Gauteng","ZA","0169","-25.7069,28.2294","Africa/Johannesburg","AS5734 Telkom SA Ltd."
"93.115.61.201",,,,,"Amsterdam","North Holland","NL","1012","52.3740,4.8897","Europe/Amsterdam","AS208273 SecuNET INC"
"86.83.61.143",,,"86-83-61-143.fixed.kpn.net",,"Meppel","Drenthe","NL","7941","52.6958,6.1944","Europe/Amsterdam","AS1136 KPN B.V."
"216.79.134.201",,,,,"Statesboro","Georgia","US","30459","32.4488,-81.7832","America/New_York","AS6389 AT&T Enterprises, LLC"
"105.6.30.244",,,,,"Johannesburg","Gauteng","ZA","2090","-26.2000,28.0833","Africa/Johannesburg","AS37168 Cell C (Pty) Ltd"
"60.197.167.40",,,,,"Seoul","Seoul","KR","03141","37.5660,126.9784","Asia/Seoul","AS3786 LG DACOM Corporation"
"146.250.144.172",,,,,"Plano","Texas","US","75026","33.0198,-96.6989","America/Chicago","AS8147 Ericsson Inc."
"158.129.49.240",,,,,"Kaunas","Kaunas","LT","44001","54.9027,23.9096","Europe/Vilnius","AS2847 Kauno Technologijos Universitetas"
"63.82.133.139",,,,,"San Mateo","California","US","94401","37.5630,-122.3255","America/Los_Angeles","AS701 Verizon Business"
"194.29.57.163",,,,,"Düsseldorf","North Rhine-Westphalia","DE","40547","51.2429,6.7428","Europe/Berlin","AS16509 Amazon.com, Inc."
"1.238.163.61",,,,,"Suwon","Gyeonggi-do","KR","16250","37.2911,127.0089","Asia/Seoul","AS9318 SK Broadband Co Ltd"
"172.111.76.65",,,,,"San Francisco","California","US","94107","37.7621,-122.3971","America/Los_Angeles","AS54113 Fastly, Inc."
"3.11.254.2",,,"ec2-3-11-254-2.eu-west-2.compute.amazonaws.com",,"London","England","GB","E1W","51.5085,-0.1257","Europe/London","AS16509 Amazon.com, Inc."
"141.169.67.34",,,,,"Eningen unter Achalm","Baden-Wurttemberg","DE","72800","48.4869,9.2595","Europe/Berlin",
"203.245.215.62",,,,,"Pohang","Gyeongsangbuk-do","KR","37745","36.0303,129.3634","Asia/Seoul","AS18305 POSCO DX"
"193.209.134.233",,,,,"Porvoo","Uusimaa","FI","06100","60.3923,25.6651","Europe/Helsinki","AS1759 Telia Finland Oyj"
"17.36.132.202",,,,,"Wardensville","West Virginia","US","26851","39.0751,-78.5978","America/New_York","AS714 Apple Inc."
"37.143.57.20",,,,,"Düsseldorf","North Rhine-Westphalia","DE","40210","51.2217,6.7762","Europe/Berlin","AS200715 ALTANA Management Services GmbH"
"161.195.172.148",,,,,"Philadelphia","Pennsylvania","US","19103","39.9513,-75.1741","America/New_York",
"66.226.179.193",,,,,"Nassau","New Providence","BS",,"25.0582,-77.3431","America/Nassau",
"170.154.69.105",,,,,"Malden","Massachusetts","US","02148","42.4251,-71.0662","America/New_York","AS6527 Commonwealth of Massachusetts"
"199.199.60.222",,,,,"Grantsburg","Wisconsin","US","54840","45.7763,-92.6827","America/Chicago","AS5006 Inteliquent, inc."
"113.134.242.82",,,,,"Shanghai","Shanghai","CN","200000","31.2222,121.4581","Asia/Shanghai","AS4134 CHINANET-BACKBONE"
"28.120.130.118",,,,,"Columbus","Ohio","US","43218","39.9690,-83.0114","America/New_York","AS749 DoD Network Information Center"
"150.25.200.56",,,,,"Asagaya-minami","Tokyo","JP","166-0000","35.7021,139.6375","Asia/Tokyo",
"110.64.1.201",,,,,"Foshan","Guangdong","CN","528000","23.0268,113.1315","Asia/Shanghai","AS4538 China Education and Research Network Center"
"8.136.178.116",,,,,"Hangzhou","Zhejiang","CN","310000","30.2936,120.1614","Asia/Shanghai","AS37963 Hangzhou Alibaba Advertising Co.,Ltd."
"106.140.105.35",,,"kd106140105035.au-net.ne.jp",,"Tokyo","Tokyo","JP","101-8656","35.6895,139.6917","Asia/Tokyo","AS2516 KDDI CORPORATION"
"16.250.113.156",,,,,"Spring","Texas","US","77389","30.1044,-95.5066","America/Chicago",
"172.184.35.29",,,,,"Washington","Virginia","US","22747","38.7135,-78.1594","America/New_York","AS8075 Microsoft Corporation"
"109.211.212.135",,,,,"Nantes","Pays de la Loire","FR","44000","47.2172,-1.5534","Europe/Paris","AS3215 Orange S.A."
"82.51.236.134",,,"host-82-51-236-134.retail.telecomitalia.it",,"Rimini","Emilia-Romagna","IT","47900","44.0575,12.5653","Europe/Rome","AS3269 Telecom Italia S.p.A."
"12.240.113.200",,,,,"Middletown","New Jersey","US","07748","40.3943,-74.1171","America/New_York","AS7018 AT&T Services, Inc."
"122.30.82.244",,,,,"Ōshū","Iwate","JP","023-0105","39.1393,141.1685","Asia/Tokyo","AS4713 NTT Communications Corporation"
"21.157.41.17",,,,,"Columbus","Ohio","US","43218","39.9690,-83.0114","America/New_York","AS749 DoD Network Information Center"
"65.149.11.248",,,,,"Chicago","Illinois","US","60666","41.8500,-87.6500","America/Chicago","AS209 CenturyLink Communications, LLC"
"145.1.251.175",,,"175.pool145-1-251.dynamic.orange.es",,"Granada","Andalusia","ES","18012","37.1882,-3.6067","Europe/Madrid","AS12479 Orange Espagne SA"
"202.21.120.44",,,,,"Choyr","Govĭ-Sumber","MN",,"46.3611,108.3611","Asia/Ulaanbaatar","AS9484 Mobinet LLC. AS Mobinet Internet Service Provider"
"81.222.37.186",,,,,"Moscow","Moscow","RU","127083","55.7522,37.6156","Europe/Moscow","AS3216 PJSC ""Vimpelcom"""
"65.124.242.67",,,,,"Seattle","Washington","US","98101","47.6062,-122.3321","America/Los_Angeles","AS209 CenturyLink Communications, LLC"
"113.201.172.36",,,,,"Ningbo","Zhejiang","CN","315000","29.8782,121.5494","Asia/Shanghai","AS4837 CHINA UNICOM China169 Backbone"
"190.152.148.249",,,"249.148.152.190.static.anycast.cnt-grms.ec",,"Tulcán","Carchi","EC","040101","0.8119,-77.7173","America/Guayaquil","AS28006 CORPORACION NACIONAL DE TELECOMUNICACIONES - CNT EP"
"145.179.219.57",,,,,"Redmond","Washington","US","98052","47.6740,-122.1215","America/Los_Angeles",
"18.92.67.57",,,,,"Seattle","Washington","US","98109","47.6339,-122.3476","America/Los_Angeles","AS16509 Amazon.com, Inc."
"212.220.106.248",,,,,"Yekaterinburg","Sverdlovsk Oblast","RU","620000","56.8519,60.6122","Asia/Yekaterinburg","AS12389 PJSC Rostelecom"
"71.93.189.160",,,"syn-071-093-189-160.res.spectrum.com",,"Hesperia","California","US","92345","34.4222,-117.3025","America/Los_Angeles","AS20115 Charter Communications"
"168.128.200.203",,,"168-128-200-203.mcp-services.net",,"Johannesburg","Gauteng","ZA","1421","-26.3333,28.1500","Africa/Johannesburg",
"115.196.150.105",,,,,"Jiaxing","Zhejiang","CN","314000","30.7522,120.7500","Asia/Shanghai","AS4134 CHINANET-BACKBONE"
"94.88.45.190",,,"host-94-88-45-190.business.telecomitalia.it",,"Rome","Lazio","IT","00118","41.8919,12.5113","Europe/Rome","AS3269 Telecom Italia S.p.A."
"208.142.57.37",,,,,"Monroe","Louisiana","US","71203","32.5530,-92.0422","America/Chicago",
"203.170.198.177",,,,,"Bangkok","Bangkok","TH","10200","13.7540,100.5014","Asia/Bangkok","AS4750 CS LOXINFO PUBLIC COMPANY LIMITED"
"92.90.132.79",,,"79.132.90.92.rev.sfr.net",,"Vitry-sur-Seine","Île-de-France","FR","94400","48.7872,2.4033","Europe/Paris","AS15557 Societe Francaise Du Radiotelephone - SFR SA"
"216.31.34.238",,,,,"Chicago","Illinois","US","60666","41.8500,-87.6500","America/Chicago","AS23028 Team Cymru Inc."
"149.46.124.220",,,,,"Washington","District of Columbia","US","20004","38.8951,-77.0364","America/New_York",
"102.203.223.1",,,,,"Port Louis","Port Louis","MU",,"-20.1619,57.4989","Indian/Mauritius",
"223.189.165.37",,,,,"Udaipur","Rajasthan","IN","313001","24.5858,73.7135","Asia/Kolkata","AS45609 Bharti Airtel Ltd. AS for GPRS Service"
"81.156.221.124",,,"host81-156-221-124.range81-156.btcentralplus.com",,"Llandudno","Wales","GB","LL30","53.3250,-3.8315","Europe/London","AS2856 British Telecommunications PLC"
"49.10.93.200",,,,,"Seoul","Seoul","KR","03141","37.5660,126.9784","Asia/Seoul",
"119.199.76.61",,,,,"Kyosai","Gyeongsangnam-do","KR","53285","34.8503,128.5886","Asia/Seoul","AS4766 Korea Telecom"
"192.163.114.167",,,,,"Espoo","Uusimaa","FI","02230","60.1525,24.7465","Europe/Helsinki","AS719 Elisa Oyj"
"22.196.202.183",,,,,"Independence","Kansas","US","67301","37.2242,-95.7083","America/Chicago","AS749 DoD Network Information Center"
"163.69.89.200",,,,,"Kobe","Hyōgo","JP","761-4146","34.6913,135.1830","Asia/Tokyo","AS36351 SoftLayer Technologies Inc."
"112.66.191.48",,,,,"Haikou","Hainan","CN","570000","20.0342,110.3465","Asia/Shanghai","AS4134 CHINANET-BACKBONE"
"12.71.148.184",,,,,"Memphis","Tennessee","US","37544","35.1495,-90.0490","America/Chicago","AS7018 AT&T Services, Inc."
